"Longitude (x)","Latitude (y)","Station Name","Climate ID","Date/Time (LST)","Year","Month","Day","Time (LST)","Temp (°C)","Temp Flag","Dew Point Temp (°C)","Dew Point Temp Flag","Rel Hum (%)","Rel Hum Flag","Precip. Amount (mm)","Precip. Amount Flag","Wind Dir (10s deg)","Wind Dir Flag","Wind Spd (km/h)","Wind Spd Flag","Visibility (km)","Visibility Flag","Stn Press (kPa)","Stn Press Flag","Hmdx","Hmdx Flag","Wind Chill","Wind Chill Flag","Weather"
"-82.08","42.31","CHATHAM KENT","6131414","2021-07-01 00:00","2021","07","01","00:00","20.4","","20.2","","99","","0.0","","24","","8","","6.4","","99.07","","28","","","","Fog"
"-82.08","42.31","CHATHAM KENT","6131414","2021-07-01 01:00","2021","07","01","01:00","19.7","","19.5","","99","","0.0","","24","","5","","1.2","","99.02","","","","","","Fog"
"-82.08","42.31","CHATHAM KENT","6131414","2021-07-01 02:00","2021","07","01","02:00","19.7","","19.7","","100","","0.0","","25","","8","","4.8","","98.97","","","","","","Fog"
"-82.08","42.31","CHATHAM KENT","6131414","2021-07-01 03:00","2021","07","01","03:00","19.8","","19.8","","100","","0.0","","1","","18","","12.9","","98.95","","","","","","NA"
"-82.08","42.31","CHATHAM KENT","6131414","2021-07-01 04:00","2021","07","01","04:00","17.7","","16.4","","92","","0.0","","4","","15","","16.1","","98.97","","","","","","NA"
"-82.08","42.31","CHATHAM KENT","6131414","2021-07-01 05:00","2021","07","01","05:00","17.1","","16.1","","94","","0.0","","5","","8","","16.1","","98.99","","","","","","NA"
"-82.08","42.31","CHATHAM KENT","6131414","2021-07-01 06:00","2021","07","01","06:00","17.4","","16.4","","94","","0.0","","4","","4","","16.1","","98.96","","","","","","NA"
"-82.08","42.31","CHATHAM KENT","6131414","2021-07-01 07:00","2021","07","01","07:00","18.0","","17.2","","95","","0.0","","3","","9","","16.1","","98.98","","","","","","Rain"
"-82.08","42.31","CHATHAM KENT","6131414","2021-07-01 08:00","2021","07","01","08:00","20.0","","17.8","","87","","0.0","","3","","13","","16.1","","99.01","","26","","","","NA"
"-82.08","42.31","CHATHAM KENT","6131414","2021-07-01 09:00","2021","07","01","09:00","21.4","","17.9","","80","","0.0","","2","","11","","16.1","","99.00","","27","","","","NA"
"-82.08","42.31","CHATHAM KENT","6131414","2021-07-01 10:00","2021","07","01","10:00","22.5","","17.9","","75","","0.0","","35","","9","","16.1","","99.01","","28","","","","NA"
"-82.08","42.31","CHATHAM KENT","6131414","2021-07-01 11:00","2021","07","01","11:00","23.3","","18.3","","73","","0.0","","35","","18","","16.1","","99.04","","30","","","","NA"
"-82.08","42.31","CHATHAM KENT","6131414","2021-07-01 12:00","2021","07","01","12:00","23.2","","17.5","","70","","0.0","","1","","22","","16.1","","99.02","","29","","","","NA"
"-82.08","42.31","CHATHAM KENT","6131414","2021-07-01 13:00","2021","07","01","13:00","24.0","","18.2","","69","","0.0","","1","","28","","16.1","","98.97","","30","","","","NA"
"-82.08","42.31","CHATHAM KENT","6131414","2021-07-01 14:00","2021","07","01","14:00","23.0","","17.6","","71","","0.0","","2","","24","","16.1","","98.97","","29","","","","NA"
"-82.08","42.31","CHATHAM KENT","6131414","2021-07-01 15:00","2021","07","01","15:00","22.3","","17.8","","75","","0.0","","2","","28","","16.1","","98.95","","28","","","","NA"
"-82.08","42.31","CHATHAM KENT","6131414","2021-07-01 16:00","2021","07","01","16:00","21.7","","16.1","","70","","0.0","","1","","30","","16.1","","98.97","","26","","","","NA"
"-82.08","42.31","CHATHAM KENT","6131414","2021-07-01 17:00","2021","07","01","17:00","21.2","","13.5","","61","","0.0","","1","","28","","16.1","","98.97","","","","","","NA"
"-82.08","42.31","CHATHAM KENT","6131414","2021-07-01 18:00","2021","07","01","18:00","20.7","","11.5","","55","","0.0","","35","","34","","16.1","","99.00","","","","","","NA"
"-82.08","42.31","CHATHAM KENT","6131414","2021-07-01 19:00","2021","07","01","19:00","19.0","","12.4","","65","","0.0","","1","","28","","16.1","","99.04","","","","","","NA"
"-82.08","42.31","CHATHAM KENT","6131414","2021-07-01 20:00","2021","07","01","20:00","16.6","","13.4","","81","","0.0","","1","","26","","16.1","","99.07","","","","","","NA"
"-82.08","42.31","CHATHAM KENT","6131414","2021-07-01 21:00","2021","07","01","21:00","15.3","","12.8","","85","","0.0","","1","","24","","16.1","","99.08","","","","","","NA"
"-82.08","42.31","CHATHAM KENT","6131414","2021-07-01 22:00","2021","07","01","22:00","14.5","","12.6","","88","","0.0","","1","","17","","16.1","","99.11","","","","","","NA"
"-82.08","42.31","CHATHAM KENT","6131414","2021-07-01 23:00","2021","07","01","23:00","14.1","","12.5","","90","","0.0","","35","","15","","16.1","","99.07","","","","","","NA"
"-82.08","42.31","CHATHAM KENT","6131414","2021-07-02 00:00","2021","07","02","00:00","13.9","","12.6","","92","","0.0","","34","","15","","16.1","","99.10","","","","","","NA"
"-82.08","42.31","CHATHAM KENT","6131414","2021-07-02 01:00","2021","07","02","01:00","13.7","","12.4","","92","","0.0","","33","","13","","16.1","","99.07","","","","","","NA"
"-82.08","42.31","CHATHAM KENT","6131414","2021-07-02 02:00","2021","07","02","02:00","13.3","","12.5","","95","","0.0","","33","","15","","16.1","","99.04","","","","","","NA"
"-82.08","42.31","CHATHAM KENT","6131414","2021-07-02 03:00","2021","07","02","03:00","12.9","","12.1","","95","","0.0","","32","","18","","16.1","","99.02","","","","","","NA"
"-82.08","42.31","CHATHAM KENT","6131414","2021-07-02 04:00","2021","07","02","04:00","12.8","","12.0","","95","","0.0","","32","","15","","16.1","","99.01","","","","","","NA"
"-82.08","42.31","CHATHAM KENT","6131414","2021-07-02 05:00","2021","07","02","05:00","12.8","","11.9","","94","","0.0","","33","","15","","16.1","","99.03","","","","","","NA"
"-82.08","42.31","CHATHAM KENT","6131414","2021-07-02 06:00","2021","07","02","06:00","13.5","","12.4","","93","","0.0","","33","","17","","16.1","","99.07","","","","","","NA"
"-82.08","42.31","CHATHAM KENT","6131414","2021-07-02 07:00","2021","07","02","07:00","15.1","","13.6","","91","","0.0","","35","","18","","16.1","","99.11","","","","","","NA"
"-82.08","42.31","CHATHAM KENT","6131414","2021-07-02 08:00","2021","07","02","08:00","17.3","","13.9","","80","","0.0","","35","","28","","16.1","","99.07","","","","","","NA"
"-82.08","42.31","CHATHAM KENT","6131414","2021-07-02 09:00","2021","07","02","09:00","17.5","","13.8","","79","","0.0","","34","","26","","16.1","","99.09","","","","","","NA"
"-82.08","42.31","CHATHAM KENT","6131414","2021-07-02 10:00","2021","07","02","10:00","19.4","","14.5","","73","","0.0","","1","","37","","16.1","","99.10","","","","","","NA"
"-82.08","42.31","CHATHAM KENT","6131414","2021-07-02 11:00","2021","07","02","11:00","20.0","","14.8","","72","","0.0","","36","","28","","16.1","","99.06","","","","","","NA"
"-82.08","42.31","CHATHAM KENT","6131414","2021-07-02 12:00","2021","07","02","12:00","20.8","","14.0","","65","","0.0","","36","","37","","16.1","","99.05","","","","","","NA"
"-82.08","42.31","CHATHAM KENT","6131414","2021-07-02 13:00","2021","07","02","13:00","21.1","","13.7","","62","","0.0","","35","","37","","16.1","","99.04","","","","","","NA"
"-82.08","42.31","CHATHAM KENT","6131414","2021-07-02 14:00","2021","07","02","14:00","22.4","","14.0","","59","","0.0","","35","","28","","16.1","","99.00","","26","","","","NA"
"-82.08","42.31","CHATHAM KENT","6131414","2021-07-02 15:00","2021","07","02","15:00","22.4","","12.5","","53","","0.0","","36","","28","","16.1","","99.02","","25","","","","NA"
"-82.08","42.31","CHATHAM KENT","6131414","2021-07-02 16:00","2021","07","02","16:00","22.7","","11.0","","47","","0.0","","36","","32","","16.1","","99.04","","","","","","NA"
"-82.08","42.31","CHATHAM KENT","6131414","2021-07-02 17:00","2021","07","02","17:00","21.8","","10.5","","48","","0.0","","36","","35","","16.1","","99.03","","","","","","NA"
"-82.08","42.31","CHATHAM KENT","6131414","2021-07-02 18:00","2021","07","02","18:00","20.8","","9.9","","49","","0.0","","36","","37","","16.1","","99.01","","","","","","NA"
"-82.08","42.31","CHATHAM KENT","6131414","2021-07-02 19:00","2021","07","02","19:00","19.5","","10.2","","55","","0.0","","35","","28","","16.1","","99.07","","","","","","NA"
"-82.08","42.31","CHATHAM KENT","6131414","2021-07-02 20:00","2021","07","02","20:00","17.7","","9.4","","58","","0.0","","36","","26","","16.1","","99.09","","","","","","NA"
"-82.08","42.31","CHATHAM KENT","6131414","2021-07-02 21:00","2021","07","02","21:00","16.0","","9.7","","66","","0.0","","36","","17","","16.1","","99.12","","","","","","NA"
"-82.08","42.31","CHATHAM KENT","6131414","2021-07-02 22:00","2021","07","02","22:00","14.9","","9.8","","71","","0.0","","35","","15","","16.1","","99.14","","","","","","NA"
"-82.08","42.31","CHATHAM KENT","6131414","2021-07-02 23:00","2021","07","02","23:00","13.3","","10.3","","82","","0.0","","4","","8","","16.1","","99.13","","","","","","NA"
"-82.08","42.31","CHATHAM KENT","6131414","2021-07-03 00:00","2021","07","03","00:00","12.5","","10.4","","87","","0.0","","1","","9","","16.1","","99.12","","","","","","NA"
"-82.08","42.31","CHATHAM KENT","6131414","2021-07-03 01:00","2021","07","03","01:00","12.3","","10.6","","89","","0.0","","1","","9","","16.1","","99.11","","","","","","NA"
"-82.08","42.31","CHATHAM KENT","6131414","2021-07-03 02:00","2021","07","03","02:00","12.7","","11.1","","90","","0.0","","34","","9","","16.1","","99.07","","","","","","NA"
"-82.08","42.31","CHATHAM KENT","6131414","2021-07-03 03:00","2021","07","03","03:00","13.2","","11.3","","88","","0.0","","34","","13","","16.1","","99.07","","","","","","NA"
"-82.08","42.31","CHATHAM KENT","6131414","2021-07-03 04:00","2021","07","03","04:00","10.9","","9.9","","93","","0.0","","31","","9","","16.1","","99.08","","","","","","NA"
"-82.08","42.31","CHATHAM KENT","6131414","2021-07-03 05:00","2021","07","03","05:00","10.6","","9.4","","93","","0.0","","31","","11","","16.1","","99.09","","","","","","NA"
"-82.08","42.31","CHATHAM KENT","6131414","2021-07-03 06:00","2021","07","03","06:00","11.3","","10.5","","95","","0.0","","31","","9","","16.1","","99.13","","","","","","NA"
"-82.08","42.31","CHATHAM KENT","6131414","2021-07-03 07:00","2021","07","03","07:00","15.2","","12.4","","83","","0.0","","32","","5","","16.1","","99.14","","","","","","NA"
"-82.08","42.31","CHATHAM KENT","6131414","2021-07-03 08:00","2021","07","03","08:00","17.4","","12.5","","73","","0.0","","33","","15","","16.1","","99.15","","","","","","NA"
"-82.08","42.31","CHATHAM KENT","6131414","2021-07-03 09:00","2021","07","03","09:00","19.3","","12.9","","66","","0.0","","33","","13","","16.1","","99.12","","","","","","NA"
"-82.08","42.31","CHATHAM KENT","6131414","2021-07-03 10:00","2021","07","03","10:00","20.6","","13.0","","61","","0.0","","29","","18","","16.1","","99.07","","","","","","NA"
"-82.08","42.31","CHATHAM KENT","6131414","2021-07-03 11:00","2021","07","03","11:00","21.3","","12.4","","56","","0.0","","29","","22","","16.1","","99.04","","","","","","NA"
"-82.08","42.31","CHATHAM KENT","6131414","2021-07-03 12:00","2021","07","03","12:00","21.6","","12.1","","54","","0.0","","29","","22","","16.1","","98.99","","","","","","NA"
"-82.08","42.31","CHATHAM KENT","6131414","2021-07-03 13:00","2021","07","03","13:00","22.7","","10.1","","44","","0.0","","30","","17","","16.1","","98.88","","","","","","NA"
"-82.08","42.31","CHATHAM KENT","6131414","2021-07-03 14:00","2021","07","03","14:00","23.7","","7.5","","35","","0.0","","30","","9","","16.1","","98.81","","","","","","NA"
"-82.08","42.31","CHATHAM KENT","6131414","2021-07-03 15:00","2021","07","03","15:00","23.1","","13.6","","55","","0.0","","21","","28","","16.1","","98.77","","26","","","","NA"
"-82.08","42.31","CHATHAM KENT","6131414","2021-07-03 16:00","2021","07","03","16:00","23.4","","14.0","","55","","0.0","","23","","24","","16.1","","98.74","","27","","","","NA"
"-82.08","42.31","CHATHAM KENT","6131414","2021-07-03 17:00","2021","07","03","17:00","23.1","","15.0","","60","","0.0","","23","","22","","16.1","","98.74","","27","","","","NA"
"-82.08","42.31","CHATHAM KENT","6131414","2021-07-03 18:00","2021","07","03","18:00","22.9","","15.1","","61","","0.0","","23","","18","","16.1","","98.72","","27","","","","NA"
"-82.08","42.31","CHATHAM KENT","6131414","2021-07-03 19:00","2021","07","03","19:00","21.7","","15.2","","66","","0.0","","22","","15","","16.1","","98.73","","26","","","","NA"
"-82.08","42.31","CHATHAM KENT","6131414","2021-07-03 20:00","2021","07","03","20:00","19.3","","16.0","","81","","0.0","","19","","13","","16.1","","98.71","","","","","","NA"
"-82.08","42.31","CHATHAM KENT","6131414","2021-07-03 21:00","2021","07","03","21:00","18.3","","16.5","","89","","0.0","","19","","13","","16.1","","98.72","","","","","","NA"
"-82.08","42.31","CHATHAM KENT","6131414","2021-07-03 22:00","2021","07","03","22:00","18.8","","17.7","","93","","0.0","","21","","9","","16.1","","98.70","","","","","","NA"
"-82.08","42.31","CHATHAM KENT","6131414","2021-07-03 23:00","2021","07","03","23:00","19.0","","17.4","","90","","0.0","","20","","9","","16.1","","98.69","","","","","","NA"
"-82.08","42.31","CHATHAM KENT","6131414","2021-07-04 00:00","2021","07","04","00:00","19.7","","18.6","","93","","0.0","","18","","9","","16.1","","98.67","","","","","","NA"
"-82.08","42.31","CHATHAM KENT","6131414","2021-07-04 01:00","2021","07","04","01:00","19.0","","18.4","","96","","0.0","","17","","8","","16.1","","98.63","","","","","","NA"
"-82.08","42.31","CHATHAM KENT","6131414","2021-07-04 02:00","2021","07","04","02:00","17.9","","17.6","","98","","0.0","","23","","4","","16.1","","98.63","","","","","","NA"
"-82.08","42.31","CHATHAM KENT","6131414","2021-07-04 03:00","2021","07","04","03:00","17.3","","17.0","","98","","0.0","","34","","4","","1.6","","98.63","","","","","","Fog"
"-82.08","42.31","CHATHAM KENT","6131414","2021-07-04 04:00","2021","07","04","04:00","16.7","","16.4","","98","","0.0","","36","","9","","6.4","","98.68","","","","","","Fog"
"-82.08","42.31","CHATHAM KENT","6131414","2021-07-04 05:00","2021","07","04","05:00","15.5","","15.4","","99","","0.0","","4","","9","","8.1","","98.73","","","","","","Fog"
"-82.08","42.31","CHATHAM KENT","6131414","2021-07-04 06:00","2021","07","04","06:00","16.4","","16.2","","99","","0.0","","35","","5","","9.7","","98.79","","","","","","Fog"
"-82.08","42.31","CHATHAM KENT","6131414","2021-07-04 07:00","2021","07","04","07:00","19.1","","17.6","","91","","0.0","","3","","9","","16.1","","98.82","","","","","","NA"
"-82.08","42.31","CHATHAM KENT","6131414","2021-07-04 08:00","2021","07","04","08:00","21.0","","17.9","","82","","0.0","","36","","11","","16.1","","98.90","","27","","","","NA"
"-82.08","42.31","CHATHAM KENT","6131414","2021-07-04 09:00","2021","07","04","09:00","23.4","","17.5","","69","","0.0","","2","","9","","16.1","","98.93","","29","","","","NA"
"-82.08","42.31","CHATHAM KENT","6131414","2021-07-04 10:00","2021","07","04","10:00","24.8","","17.1","","62","","0.0","","36","","9","","16.1","","98.92","","30","","","","NA"
"-82.08","42.31","CHATHAM KENT","6131414","2021-07-04 11:00","2021","07","04","11:00","25.3","","19.6","","70","","0.0","","18","","11","","16.1","","98.93","","33","","","","NA"
"-82.08","42.31","CHATHAM KENT","6131414","2021-07-04 12:00","2021","07","04","12:00","24.5","","18.5","","69","","0.0","","18","","13","","16.1","","98.95","","31","","","","NA"
"-82.08","42.31","CHATHAM KENT","6131414","2021-07-04 13:00","2021","07","04","13:00","24.4","","17.6","","65","","0.0","","17","","17","","16.1","","98.97","","30","","","","NA"
"-82.08","42.31","CHATHAM KENT","6131414","2021-07-04 14:00","2021","07","04","14:00","24.9","","18.3","","66","","0.0","","16","","17","","16.1","","98.98","","31","","","","NA"
"-82.08","42.31","CHATHAM KENT","6131414","2021-07-04 15:00","2021","07","04","15:00","25.0","","17.6","","63","","0.0","","19","","17","","16.1","","98.99","","31","","","","NA"
"-82.08","42.31","CHATHAM KENT","6131414","2021-07-04 16:00","2021","07","04","16:00","24.8","","17.1","","62","","0.0","","19","","18","","16.1","","98.98","","30","","","","NA"
"-82.08","42.31","CHATHAM KENT","6131414","2021-07-04 17:00","2021","07","04","17:00","24.1","","18.3","","70","","0.0","","19","","13","","16.1","","98.98","","30","","","","NA"
"-82.08","42.31","CHATHAM KENT","6131414","2021-07-04 18:00","2021","07","04","18:00","23.9","","17.6","","68","","0.0","","18","","17","","16.1","","98.99","","30","","","","NA"
"-82.08","42.31","CHATHAM KENT","6131414","2021-07-04 19:00","2021","07","04","19:00","23.0","","18.3","","75","","0.0","","18","","11","","16.1","","99.01","","29","","","","NA"
"-82.08","42.31","CHATHAM KENT","6131414","2021-07-04 20:00","2021","07","04","20:00","21.4","","19.0","","86","","0.0","","15","","9","","16.1","","99.01","","28","","","","NA"
"-82.08","42.31","CHATHAM KENT","6131414","2021-07-04 21:00","2021","07","04","21:00","20.8","","18.4","","86","","0.0","","16","","9","","16.1","","99.02","","27","","","","NA"
"-82.08","42.31","CHATHAM KENT","6131414","2021-07-04 22:00","2021","07","04","22:00","20.9","","18.9","","88","","0.0","","16","","11","","16.1","","99.06","","28","","","","NA"
"-82.08","42.31","CHATHAM KENT","6131414","2021-07-04 23:00","2021","07","04","23:00","20.7","","19.1","","90","","0.0","","15","","11","","16.1","","99.06","","28","","","","NA"
"-82.08","42.31","CHATHAM KENT","6131414","2021-07-05 00:00","2021","07","05","00:00","21.0","","17.5","","80","","0.0","","16","","11","","16.1","","99.07","","27","","","","NA"
"-82.08","42.31","CHATHAM KENT","6131414","2021-07-05 01:00","2021","07","05","01:00","21.1","","18.5","","85","","0.0","","17","","11","","16.1","","99.03","","27","","","","NA"
"-82.08","42.31","CHATHAM KENT","6131414","2021-07-05 02:00","2021","07","05","02:00","20.0","","18.5","","91","","0.0","","18","","9","","14.5","","99.03","","26","","","","NA"
"-82.08","42.31","CHATHAM KENT","6131414","2021-07-05 03:00","2021","07","05","03:00","19.6","","18.6","","94","","0.0","","20","","5","","6.4","","99.02","","","","","","Fog"
"-82.08","42.31","CHATHAM KENT","6131414","2021-07-05 04:00","2021","07","05","04:00","19.4","","18.9","","97","","0.0","","26","","5","","6.4","","99.03","","","","","","Fog"
"-82.08","42.31","CHATHAM KENT","6131414","2021-07-05 05:00","2021","07","05","05:00","18.6","","18.1","","97","","0.0","","24","","5","","4.8","","99.07","","","","","","Fog"
"-82.08","42.31","CHATHAM KENT","6131414","2021-07-05 06:00","2021","07","05","06:00","19.7","","18.9","","95","","0.0","","24","","11","","8.1","","99.11","","","","","","Fog"
"-82.08","42.31","CHATHAM KENT","6131414","2021-07-05 07:00","2021","07","05","07:00","22.8","","20.3","","86","","0.0","","24","","11","","16.1","","99.12","","31","","","","NA"
"-82.08","42.31","CHATHAM KENT","6131414","2021-07-05 08:00","2021","07","05","08:00","25.6","","21.0","","75","","0.0","","27","","13","","16.1","","99.12","","34","","","","NA"
"-82.08","42.31","CHATHAM KENT","6131414","2021-07-05 09:00","2021","07","05","09:00","26.3","","21.4","","74","","0.0","","28","","17","","16.1","","99.16","","35","","","","NA"
"-82.08","42.31","CHATHAM KENT","6131414","2021-07-05 10:00","2021","07","05","10:00","27.9","","21.4","","67","","0.0","","27","","17","","16.1","","99.17","","37","","","","NA"
"-82.08","42.31","CHATHAM KENT","6131414","2021-07-05 11:00","2021","07","05","11:00","29.3","","20.6","","59","","0.0","","27","","21","","16.1","","99.15","","37","","","","NA"
"-82.08","42.31","CHATHAM KENT","6131414","2021-07-05 12:00","2021","07","05","12:00","27.4","","22.8","","76","","0.0","","21","","26","","16.1","","99.11","","37","","","","NA"
"-82.08","42.31","CHATHAM KENT","6131414","2021-07-05 13:00","2021","07","05","13:00","27.7","","22.0","","71","","0.0","","23","","26","","16.1","","99.10","","37","","","","NA"
"-82.08","42.31","CHATHAM KENT","6131414","2021-07-05 14:00","2021","07","05","14:00","28.7","","22.0","","66","","0.0","","23","","28","","16.1","","99.07","","38","","","","NA"
"-82.08","42.31","CHATHAM KENT","6131414","2021-07-05 15:00","2021","07","05","15:00","29.1","","22.0","","65","","0.0","","24","","30","","16.1","","99.05","","38","","","","NA"
"-82.08","42.31","CHATHAM KENT","6131414","2021-07-05 16:00","2021","07","05","16:00","30.0","","22.4","","63","","0.0","","23","","30","","16.1","","99.01","","40","","","","NA"
"-82.08","42.31","CHATHAM KENT","6131414","2021-07-05 17:00","2021","07","05","17:00","30.6","","21.3","","57","","0.0","","25","","32","","16.1","","98.99","","39","","","","NA"
"-82.08","42.31","CHATHAM KENT","6131414","2021-07-05 18:00","2021","07","05","18:00","30.3","","21.6","","59","","0.0","","24","","28","","16.1","","99.01","","39","","","","NA"
"-82.08","42.31","CHATHAM KENT","6131414","2021-07-05 19:00","2021","07","05","19:00","29.2","","21.3","","62","","0.0","","24","","24","","16.1","","99.00","","38","","","","NA"
"-82.08","42.31","CHATHAM KENT","6131414","2021-07-05 20:00","2021","07","05","20:00","27.2","","21.1","","69","","0.0","","24","","18","","16.1","","98.98","","36","","","","NA"
"-82.08","42.31","CHATHAM KENT","6131414","2021-07-05 21:00","2021","07","05","21:00","26.3","","20.7","","71","","0.0","","25","","18","","16.1","","99.06","","34","","","","NA"
"-82.08","42.31","CHATHAM KENT","6131414","2021-07-05 22:00","2021","07","05","22:00","25.7","","20.8","","74","","0.0","","26","","15","","16.1","","99.13","","34","","","","NA"
"-82.08","42.31","CHATHAM KENT","6131414","2021-07-05 23:00","2021","07","05","23:00","24.8","","20.8","","78","","0.0","","25","","15","","16.1","","99.13","","33","","","","NA"
"-82.08","42.31","CHATHAM KENT","6131414","2021-07-06 00:00","2021","07","06","00:00","24.4","","20.7","","80","","0.0","","25","","17","","16.1","","99.12","","33","","","","NA"
"-82.08","42.31","CHATHAM KENT","6131414","2021-07-06 01:00","2021","07","06","01:00","24.7","","20.7","","78","","0.0","","26","","17","","16.1","","99.09","","33","","","","NA"
"-82.08","42.31","CHATHAM KENT","6131414","2021-07-06 02:00","2021","07","06","02:00","24.1","","20.9","","82","","0.0","","25","","18","","16.1","","99.08","","32","","","","NA"
"-82.08","42.31","CHATHAM KENT","6131414","2021-07-06 03:00","2021","07","06","03:00","24.2","","20.8","","81","","0.0","","25","","15","","16.1","","99.11","","32","","","","NA"
"-82.08","42.31","CHATHAM KENT","6131414","2021-07-06 04:00","2021","07","06","04:00","23.9","","20.9","","83","","0.0","","26","","17","","16.1","","99.11","","32","","","","NA"
"-82.08","42.31","CHATHAM KENT","6131414","2021-07-06 05:00","2021","07","06","05:00","23.5","","20.9","","85","","0.0","","26","","15","","16.1","","99.12","","32","","","","NA"
"-82.08","42.31","CHATHAM KENT","6131414","2021-07-06 06:00","2021","07","06","06:00","23.7","","20.9","","84","","0.0","","26","","15","","16.1","","99.15","","32","","","","NA"
"-82.08","42.31","CHATHAM KENT","6131414","2021-07-06 07:00","2021","07","06","07:00","24.5","","21.3","","82","","0.0","","26","","17","","16.1","","99.21","","33","","","","NA"
"-82.08","42.31","CHATHAM KENT","6131414","2021-07-06 08:00","2021","07","06","08:00","25.1","","21.5","","80","","0.0","","27","","13","","16.1","","99.24","","34","","","","NA"
"-82.08","42.31","CHATHAM KENT","6131414","2021-07-06 09:00","2021","07","06","09:00","26.4","","21.8","","75","","0.0","","28","","21","","16.1","","99.21","","36","","","","NA"
"-82.08","42.31","CHATHAM KENT","6131414","2021-07-06 10:00","2021","07","06","10:00","28.0","","21.8","","68","","0.0","","29","","26","","16.1","","99.23","","37","","","","NA"
"-82.08","42.31","CHATHAM KENT","6131414","2021-07-06 11:00","2021","07","06","11:00","28.1","","22.1","","70","","0.0","","31","","21","","16.1","","99.23","","38","","","","NA"
"-82.08","42.31","CHATHAM KENT","6131414","2021-07-06 12:00","2021","07","06","12:00","29.3","","22.1","","65","","1.3","","29","","18","","16.1","","99.22","","39","","","","NA"
"-82.08","42.31","CHATHAM KENT","6131414","2021-07-06 13:00","2021","07","06","13:00","30.5","","23.2","","65","","0.0","","31","","17","","16.1","","99.19","","41","","","","NA"
"-82.08","42.31","CHATHAM KENT","6131414","2021-07-06 14:00","2021","07","06","14:00","29.8","","22.5","","64","","0.0","","26","","11","","16.1","","99.17","","40","","","","NA"
"-82.08","42.31","CHATHAM KENT","6131414","2021-07-06 15:00","2021","07","06","15:00","29.5","","23.1","","68","","0.0","","22","","18","","16.1","","99.14","","40","","","","NA"
"-82.08","42.31","CHATHAM KENT","6131414","2021-07-06 16:00","2021","07","06","16:00","29.7","","23.0","","67","","0.0","","22","","18","","16.1","","99.08","","40","","","","NA"
"-82.08","42.31","CHATHAM KENT","6131414","2021-07-06 17:00","2021","07","06","17:00","27.7","","18.9","","58","","0.0","","24","","35","","16.1","","99.08","","34","","","","Thunderstorms"
"-82.08","42.31","CHATHAM KENT","6131414","2021-07-06 18:00","2021","07","06","18:00","24.4","","16.5","","61","","0.0","","26","","15","","16.1","","99.06","","29","","","","Rain"
"-82.08","42.31","CHATHAM KENT","6131414","2021-07-06 19:00","2021","07","06","19:00","24.6","","18.9","","70","","0.0","","34","","5","","16.1","","99.09","","31","","","","NA"
"-82.08","42.31","CHATHAM KENT","6131414","2021-07-06 20:00","2021","07","06","20:00","25.1","","19.9","","73","","0.0","","33","","11","","16.1","","99.11","","33","","","","NA"
"-82.08","42.31","CHATHAM KENT","6131414","2021-07-06 21:00","2021","07","06","21:00","23.0","","20.9","","88","","0.0","","15","","5","","16.1","","99.12","","31","","","","NA"
"-82.08","42.31","CHATHAM KENT","6131414","2021-07-06 22:00","2021","07","06","22:00","21.8","","21.0","","95","","4.3","","20","","9","","4.8","","99.23","","30","","","","Thunderstorms,Heavy Rain,Fog"
"-82.08","42.31","CHATHAM KENT","6131414","2021-07-06 23:00","2021","07","06","23:00","21.5","","19.9","","90","","0.2","","15","","11","","16.1","","99.12","","29","","","","NA"
"-82.08","42.31","CHATHAM KENT","6131414","2021-07-07 00:00","2021","07","07","00:00","21.5","","20.1","","92","","0.0","","","M","21","","16.1","","99.19","","29","","","","NA"
"-82.08","42.31","CHATHAM KENT","6131414","2021-07-07 01:00","2021","07","07","01:00","20.6","","20.0","","96","","0.0","","17","","8","","16.1","","99.13","","28","","","","NA"
"-82.08","42.31","CHATHAM KENT","6131414","2021-07-07 02:00","2021","07","07","02:00","20.2","","19.7","","97","","0.0","","","","0","","12.9","","99.10","","28","","","","NA"
"-82.08","42.31","CHATHAM KENT","6131414","2021-07-07 03:00","2021","07","07","03:00","19.7","","19.4","","98","","0.0","","","M","4","","6.4","","99.11","","","","","","Fog"
"-82.08","42.31","CHATHAM KENT","6131414","2021-07-07 04:00","2021","07","07","04:00","19.8","","19.6","","99","","0.0","","21","","8","","6.4","","99.09","","","","","","Fog"
"-82.08","42.31","CHATHAM KENT","6131414","2021-07-07 05:00","2021","07","07","05:00","20.3","","19.7","","96","","0.0","","25","","9","","12.9","","99.10","","28","","","","NA"
"-82.08","42.31","CHATHAM KENT","6131414","2021-07-07 06:00","2021","07","07","06:00","21.3","","20.3","","94","","0.0","","25","","11","","8.1","","99.08","","29","","","","Fog"
"-82.08","42.31","CHATHAM KENT","6131414","2021-07-07 07:00","2021","07","07","07:00","24.0","","21.7","","87","","0.0","","26","","9","","14.5","","99.10","","33","","","","NA"
"-82.08","42.31","CHATHAM KENT","6131414","2021-07-07 08:00","2021","07","07","08:00","25.7","","22.0","","80","","0.0","","29","","17","","16.1","","99.13","","35","","","","NA"
"-82.08","42.31","CHATHAM KENT","6131414","2021-07-07 09:00","2021","07","07","09:00","26.8","","22.4","","77","","0.0","","28","","13","","16.1","","99.11","","36","","","","NA"
"-82.08","42.31","CHATHAM KENT","6131414","2021-07-07 10:00","2021","07","07","10:00","27.6","","22.4","","73","","0.0","","26","","11","","16.1","","99.09","","37","","","","NA"
"-82.08","42.31","CHATHAM KENT","6131414","2021-07-07 11:00","2021","07","07","11:00","27.7","","23.4","","77","","0.0","","21","","17","","16.1","","99.07","","38","","","","NA"
"-82.08","42.31","CHATHAM KENT","6131414","2021-07-07 12:00","2021","07","07","12:00","27.4","","23.7","","80","","0.0","","21","","18","","14.5","","99.03","","38","","","","NA"
"-82.08","42.31","CHATHAM KENT","6131414","2021-07-07 13:00","2021","07","07","13:00","28.0","","23.4","","76","","0.0","","20","","21","","16.1","","98.95","","39","","","","NA"
"-82.08","42.31","CHATHAM KENT","6131414","2021-07-07 14:00","2021","07","07","14:00","27.9","","23.0","","74","","0.0","","21","","24","","16.1","","98.90","","38","","","","NA"
"-82.08","42.31","CHATHAM KENT","6131414","2021-07-07 15:00","2021","07","07","15:00","27.5","","22.4","","73","","0.0","","20","","22","","16.1","","98.82","","37","","","","NA"
"-82.08","42.31","CHATHAM KENT","6131414","2021-07-07 16:00","2021","07","07","16:00","26.5","","22.1","","76","","0.0","","22","","17","","16.1","","98.83","","36","","","","NA"
"-82.08","42.31","CHATHAM KENT","6131414","2021-07-07 17:00","2021","07","07","17:00","20.4","","18.9","","91","","","M","6","","17","","16.1","","98.99","","27","","","","Thunderstorms,Rain"
"-82.08","42.31","CHATHAM KENT","6131414","2021-07-07 18:00","2021","07","07","18:00","20.8","","19.5","","92","","","M","1","","8","","16.1","","99.03","","28","","","","NA"
"-82.08","42.31","CHATHAM KENT","6131414","2021-07-07 19:00","2021","07","07","19:00","20.5","","19.7","","95","","0.0","","12","","8","","16.1","","98.97","","28","","","","Rain"
"-82.08","42.31","CHATHAM KENT","6131414","2021-07-07 20:00","2021","07","07","20:00","20.6","","19.1","","91","","0.8","","10","","11","","16.1","","98.96","","27","","","","NA"
"-82.08","42.31","CHATHAM KENT","6131414","2021-07-07 21:00","2021","07","07","21:00","20.6","","19.5","","93","","0.0","","14","","9","","16.1","","98.95","","28","","","","NA"
"-82.08","42.31","CHATHAM KENT","6131414","2021-07-07 22:00","2021","07","07","22:00","20.5","","19.7","","95","","0.0","","15","","18","","16.1","","98.92","","28","","","","Rain"
"-82.08","42.31","CHATHAM KENT","6131414","2021-07-07 23:00","2021","07","07","23:00","21.0","","20.5","","97","","0.0","","17","","13","","14.5","","98.91","","29","","","","NA"
"-82.08","42.31","CHATHAM KENT","6131414","2021-07-08 00:00","2021","07","08","00:00","21.0","","20.4","","96","","0.0","","17","","11","","16.1","","98.88","","29","","","","NA"
"-82.08","42.31","CHATHAM KENT","6131414","2021-07-08 01:00","2021","07","08","01:00","21.5","","20.3","","93","","0.0","","20","","21","","16.1","","98.87","","29","","","","NA"
"-82.08","42.31","CHATHAM KENT","6131414","2021-07-08 02:00","2021","07","08","02:00","21.1","","20.5","","96","","0.0","","18","","13","","16.1","","98.80","","29","","","","NA"
"-82.08","42.31","CHATHAM KENT","6131414","2021-07-08 03:00","2021","07","08","03:00","20.9","","20.4","","97","","0.0","","17","","8","","8.1","","98.75","","29","","","","Fog"
"-82.08","42.31","CHATHAM KENT","6131414","2021-07-08 04:00","2021","07","08","04:00","20.7","","20.5","","99","","0.0","","21","","5","","4.8","","98.73","","29","","","","Fog"
"-82.08","42.31","CHATHAM KENT","6131414","2021-07-08 05:00","2021","07","08","05:00","20.3","","20.1","","99","","0.0","","18","","8","","4.0","","98.74","","28","","","","Fog"
"-82.08","42.31","CHATHAM KENT","6131414","2021-07-08 06:00","2021","07","08","06:00","21.4","","20.9","","97","","0.0","","18","","8","","16.1","","98.75","","30","","","","NA"
"-82.08","42.31","CHATHAM KENT","6131414","2021-07-08 07:00","2021","07","08","07:00","21.8","","21.3","","97","","0.0","","21","","9","","16.1","","98.75","","30","","","","Thunderstorms"
"-82.08","42.31","CHATHAM KENT","6131414","2021-07-08 08:00","2021","07","08","08:00","19.1","","18.5","","96","","3.5","","","M","4","","16.1","","98.79","","","","","","Thunderstorms,Rain"
"-82.08","42.31","CHATHAM KENT","6131414","2021-07-08 09:00","2021","07","08","09:00","21.2","","19.1","","88","","0.0","","22","","5","","16.1","","98.73","","28","","","","NA"
"-82.08","42.31","CHATHAM KENT","6131414","2021-07-08 10:00","2021","07","08","10:00","23.0","","20.1","","84","","0.0","","23","","5","","16.1","","98.71","","31","","","","Rain"
"-82.08","42.31","CHATHAM KENT","6131414","2021-07-08 11:00","2021","07","08","11:00","23.2","","20.8","","86","","0.0","","19","","8","","16.1","","98.74","","31","","","","NA"
"-82.08","42.31","CHATHAM KENT","6131414","2021-07-08 12:00","2021","07","08","12:00","21.7","","20.2","","91","","2.0","","5","","17","","8.1","","98.73","","29","","","","Heavy Rain,Fog"
"-82.08","42.31","CHATHAM KENT","6131414","2021-07-08 13:00","2021","07","08","13:00","22.8","","20.9","","89","","0.8","","10","","13","","16.1","","98.70","","31","","","","NA"
"-82.08","42.31","CHATHAM KENT","6131414","2021-07-08 14:00","2021","07","08","14:00","24.5","","22.6","","89","","0.0","","15","","13","","12.9","","98.68","","34","","","","NA"
"-82.08","42.31","CHATHAM KENT","6131414","2021-07-08 15:00","2021","07","08","15:00","22.5","","21.3","","93","","0.0","","21","","15","","4.8","","98.70","","31","","","","Heavy Rain,Fog"
"-82.08","42.31","CHATHAM KENT","6131414","2021-07-08 16:00","2021","07","08","16:00","22.2","","21.0","","93","","","M","24","","13","","9.7","","98.72","","31","","","","Thunderstorms,Moderate Rain,Fog"
"-82.08","42.31","CHATHAM KENT","6131414","2021-07-08 17:00","2021","07","08","17:00","23.5","","21.3","","87","","","M","26","","8","","12.9","","98.67","","32","","","","NA"
"-82.08","42.31","CHATHAM KENT","6131414","2021-07-08 18:00","2021","07","08","18:00","24.0","","21.9","","88","","","M","28","","8","","16.1","","98.65","","33","","","","NA"
"-82.08","42.31","CHATHAM KENT","6131414","2021-07-08 19:00","2021","07","08","19:00","22.4","","20.5","","89","","","M","22","","8","","16.1","","98.67","","30","","","","NA"
"-82.08","42.31","CHATHAM KENT","6131414","2021-07-08 20:00","2021","07","08","20:00","20.9","","19.6","","92","","","M","2","","18","","16.1","","98.74","","28","","","","NA"
"-82.08","42.31","CHATHAM KENT","6131414","2021-07-08 21:00","2021","07","08","21:00","19.2","","18.2","","94","","","M","1","","18","","16.1","","98.82","","","","","","NA"
"-82.08","42.31","CHATHAM KENT","6131414","2021-07-08 22:00","2021","07","08","22:00","17.9","","16.9","","94","","","M","2","","15","","16.1","","98.88","","","","","","NA"
"-82.08","42.31","CHATHAM KENT","6131414","2021-07-08 23:00","2021","07","08","23:00","17.2","","16.1","","93","","","M","1","","17","","16.1","","98.89","","","","","","NA"
"-82.08","42.31","CHATHAM KENT","6131414","2021-07-09 00:00","2021","07","09","00:00","16.7","","15.4","","92","","","M","36","","22","","16.1","","98.90","","","","","","NA"
"-82.08","42.31","CHATHAM KENT","6131414","2021-07-09 01:00","2021","07","09","01:00","16.1","","15.0","","93","","","M","36","","22","","16.1","","98.90","","","","","","NA"
"-82.08","42.31","CHATHAM KENT","6131414","2021-07-09 02:00","2021","07","09","02:00","15.7","","14.8","","94","","","M","36","","18","","16.1","","98.88","","","","","","NA"
"-82.08","42.31","CHATHAM KENT","6131414","2021-07-09 03:00","2021","07","09","03:00","15.3","","14.4","","94","","","M","35","","22","","16.1","","98.91","","","","","","NA"
"-82.08","42.31","CHATHAM KENT","6131414","2021-07-09 04:00","2021","07","09","04:00","15.3","","14.0","","92","","","M","35","","21","","16.1","","98.96","","","","","","NA"
"-82.08","42.31","CHATHAM KENT","6131414","2021-07-09 05:00","2021","07","09","05:00","14.6","","13.5","","93","","","M","34","","15","","16.1","","98.98","","","","","","NA"
"-82.08","42.31","CHATHAM KENT","6131414","2021-07-09 06:00","2021","07","09","06:00","15.1","","13.7","","91","","","M","35","","13","","16.1","","99.02","","","","","","NA"
"-82.08","42.31","CHATHAM KENT","6131414","2021-07-09 07:00","2021","07","09","07:00","15.4","","13.8","","90","","","M","35","","21","","16.1","","99.06","","","","","","NA"
"-82.08","42.31","CHATHAM KENT","6131414","2021-07-09 08:00","2021","07","09","08:00","15.8","","13.7","","87","","","M","33","","15","","16.1","","99.18","","","","","","NA"
"-82.08","42.31","CHATHAM KENT","6131414","2021-07-09 09:00","2021","07","09","09:00","16.4","","13.8","","84","","","M","33","","22","","16.1","","99.22","","","","","","NA"
"-82.08","42.31","CHATHAM KENT","6131414","2021-07-09 10:00","2021","07","09","10:00","16.8","","13.8","","83","","","M","34","","21","","16.1","","99.24","","","","","","NA"
"-82.08","42.31","CHATHAM KENT","6131414","2021-07-09 11:00","2021","07","09","11:00","17.4","","13.6","","78","","","M","36","","24","","16.1","","99.26","","","","","","NA"
"-82.08","42.31","CHATHAM KENT","6131414","2021-07-09 12:00","2021","07","09","12:00","18.0","","13.6","","75","","","M","33","","18","","16.1","","99.28","","","","","","NA"
"-82.08","42.31","CHATHAM KENT","6131414","2021-07-09 13:00","2021","07","09","13:00","20.3","","13.9","","66","","","M","34","","18","","16.1","","99.26","","","","","","NA"
"-82.08","42.31","CHATHAM KENT","6131414","2021-07-09 14:00","2021","07","09","14:00","21.1","","12.9","","59","","","M","35","","17","","16.1","","99.24","","","","","","NA"
"-82.08","42.31","CHATHAM KENT","6131414","2021-07-09 15:00","2021","07","09","15:00","21.5","","13.2","","59","","","M","1","","22","","16.1","","99.21","","","","","","NA"
"-82.08","42.31","CHATHAM KENT","6131414","2021-07-09 16:00","2021","07","09","16:00","21.8","","14.1","","61","","","M","35","","11","","16.1","","99.24","","25","","","","NA"
"-82.08","42.31","CHATHAM KENT","6131414","2021-07-09 17:00","2021","07","09","17:00","21.3","","14.2","","63","","","M","36","","21","","16.1","","99.27","","25","","","","NA"
"-82.08","42.31","CHATHAM KENT","6131414","2021-07-09 18:00","2021","07","09","18:00","20.5","","14.1","","66","","","M","1","","13","","16.1","","99.32","","","","","","NA"
"-82.08","42.31","CHATHAM KENT","6131414","2021-07-09 19:00","2021","07","09","19:00","19.2","","12.6","","65","","","M","36","","17","","16.1","","99.38","","","","","","NA"
"-82.08","42.31","CHATHAM KENT","6131414","2021-07-09 20:00","2021","07","09","20:00","16.5","","12.3","","76","","","M","36","","11","","16.1","","99.43","","","","","","NA"
"-82.08","42.31","CHATHAM KENT","6131414","2021-07-09 21:00","2021","07","09","21:00","14.7","","11.7","","82","","","M","36","","9","","16.1","","99.48","","","","","","NA"
"-82.08","42.31","CHATHAM KENT","6131414","2021-07-09 22:00","2021","07","09","22:00","13.4","","11.6","","89","","","M","36","","11","","16.1","","99.52","","","","","","NA"
"-82.08","42.31","CHATHAM KENT","6131414","2021-07-09 23:00","2021","07","09","23:00","12.3","","11.2","","93","","","M","4","","8","","16.1","","99.55","","","","","","NA"
"-82.08","42.31","CHATHAM KENT","6131414","2021-07-10 00:00","2021","07","10","00:00","11.8","","11.2","","96","","","M","","","0","","16.1","","99.55","","","","","","NA"
"-82.08","42.31","CHATHAM KENT","6131414","2021-07-10 01:00","2021","07","10","01:00","11.1","","10.8","","98","","","M","6","","4","","16.1","","99.48","","","","","","NA"
"-82.08","42.31","CHATHAM KENT","6131414","2021-07-10 02:00","2021","07","10","02:00","11.0","","10.7","","98","","","M","","","0","","16.1","","99.48","","","","","","NA"
"-82.08","42.31","CHATHAM KENT","6131414","2021-07-10 03:00","2021","07","10","03:00","10.0","","9.9","","99","","","M","34","","5","","16.1","","99.49","","","","","","NA"
"-82.08","42.31","CHATHAM KENT","6131414","2021-07-10 04:00","2021","07","10","04:00","9.7","","9.6","","99","","","M","4","","8","","11.3","","99.46","","","","","","NA"
"-82.08","42.31","CHATHAM KENT","6131414","2021-07-10 05:00","2021","07","10","05:00","9.9","","9.8","","99","","","M","","","0","","9.7","","99.49","","","","","","Fog"
"-82.08","42.31","CHATHAM KENT","6131414","2021-07-10 06:00","2021","07","10","06:00","10.6","","10.5","","100","","","M","","","0","","16.1","","99.53","","","","","","NA"
"-82.08","42.31","CHATHAM KENT","6131414","2021-07-10 07:00","2021","07","10","07:00","14.1","","13.3","","95","","","M","3","","9","","16.1","","99.50","","","","","","NA"
"-82.08","42.31","CHATHAM KENT","6131414","2021-07-10 08:00","2021","07","10","08:00","16.7","","14.3","","85","","","M","6","","8","","16.1","","99.60","","","","","","NA"
"-82.08","42.31","CHATHAM KENT","6131414","2021-07-10 09:00","2021","07","10","09:00","18.2","","14.2","","77","","","M","","M","8","","16.1","","99.62","","","","","","NA"
"-82.08","42.31","CHATHAM KENT","6131414","2021-07-10 10:00","2021","07","10","10:00","19.2","","14.7","","75","","","M","20","","15","","16.1","","99.59","","","","","","NA"
"-82.08","42.31","CHATHAM KENT","6131414","2021-07-10 11:00","2021","07","10","11:00","19.9","","13.6","","67","","","M","16","","13","","16.1","","99.58","","","","","","NA"
"-82.08","42.31","CHATHAM KENT","6131414","2021-07-10 12:00","2021","07","10","12:00","20.3","","14.2","","68","","","M","","M","9","","16.1","","99.58","","","","","","NA"
"-82.08","42.31","CHATHAM KENT","6131414","2021-07-10 13:00","2021","07","10","13:00","20.8","","13.7","","63","","","M","","M","5","","16.1","","99.49","","","","","","NA"
"-82.08","42.31","CHATHAM KENT","6131414","2021-07-10 14:00","2021","07","10","14:00","20.6","","14.2","","66","","","M","16","","17","","16.1","","99.47","","","","","","NA"
"-82.08","42.31","CHATHAM KENT","6131414","2021-07-10 15:00","2021","07","10","15:00","20.4","","14.7","","70","","","M","14","","15","","16.1","","99.42","","","","","","NA"
"-82.08","42.31","CHATHAM KENT","6131414","2021-07-10 16:00","2021","07","10","16:00","21.2","","15.0","","67","","","M","15","","17","","16.1","","99.38","","25","","","","NA"
"-82.08","42.31","CHATHAM KENT","6131414","2021-07-10 17:00","2021","07","10","17:00","21.0","","15.1","","68","","","M","15","","13","","16.1","","99.35","","25","","","","NA"
"-82.08","42.31","CHATHAM KENT","6131414","2021-07-10 18:00","2021","07","10","18:00","20.5","","14.6","","68","","","M","12","","11","","16.1","","99.30","","","","","","NA"
"-82.08","42.31","CHATHAM KENT","6131414","2021-07-10 19:00","2021","07","10","19:00","19.3","","14.2","","72","","","M","11","","11","","16.1","","99.30","","","","","","NA"
"-82.08","42.31","CHATHAM KENT","6131414","2021-07-10 20:00","2021","07","10","20:00","17.4","","14.3","","82","","","M","6","","5","","16.1","","99.34","","","","","","NA"
"-82.08","42.31","CHATHAM KENT","6131414","2021-07-10 21:00","2021","07","10","21:00","16.5","","14.7","","89","","","M","4","","4","","16.1","","99.40","","","","","","NA"
"-82.08","42.31","CHATHAM KENT","6131414","2021-07-10 22:00","2021","07","10","22:00","16.1","","14.8","","92","","","M","5","","5","","16.1","","99.39","","","","","","NA"
"-82.08","42.31","CHATHAM KENT","6131414","2021-07-10 23:00","2021","07","10","23:00","16.2","","15.3","","94","","","M","7","","8","","16.1","","99.32","","","","","","NA"
"-82.08","42.31","CHATHAM KENT","6131414","2021-07-11 00:00","2021","07","11","00:00","18.0","","16.4","","90","","","M","11","","9","","16.1","","99.34","","","","","","NA"
"-82.08","42.31","CHATHAM KENT","6131414","2021-07-11 01:00","2021","07","11","01:00","18.4","","16.4","","88","","","M","10","","11","","16.1","","99.27","","","","","","NA"
"-82.08","42.31","CHATHAM KENT","6131414","2021-07-11 02:00","2021","07","11","02:00","18.7","","16.3","","86","","","M","9","","11","","16.1","","99.21","","","","","","NA"
"-82.08","42.31","CHATHAM KENT","6131414","2021-07-11 03:00","2021","07","11","03:00","18.5","","16.5","","88","","","M","11","","11","","16.1","","99.22","","","","","","NA"
"-82.08","42.31","CHATHAM KENT","6131414","2021-07-11 04:00","2021","07","11","04:00","18.6","","16.6","","88","","","M","10","","11","","16.1","","99.20","","","","","","Rain"
"-82.08","42.31","CHATHAM KENT","6131414","2021-07-11 05:00","2021","07","11","05:00","18.1","","17.1","","94","","","M","8","","11","","16.1","","99.18","","","","","","Rain"
"-82.08","42.31","CHATHAM KENT","6131414","2021-07-11 06:00","2021","07","11","06:00","18.6","","17.8","","95","","","M","9","","11","","14.5","","99.21","","","","","","Rain"
"-82.08","42.31","CHATHAM KENT","6131414","2021-07-11 07:00","2021","07","11","07:00","18.9","","17.9","","94","","","M","9","","17","","14.5","","99.17","","","","","","Rain"
"-82.08","42.31","CHATHAM KENT","6131414","2021-07-11 08:00","2021","07","11","08:00","19.0","","18.1","","95","","","M","9","","15","","16.1","","99.16","","","","","","Rain"
"-82.08","42.31","CHATHAM KENT","6131414","2021-07-11 09:00","2021","07","11","09:00","18.8","","18.3","","97","","","M","10","","18","","4.8","","99.22","","","","","","Rain,Fog"
"-82.08","42.31","CHATHAM KENT","6131414","2021-07-11 10:00","2021","07","11","10:00","17.9","","16.8","","93","","","M","9","","17","","16.1","","99.16","","","","","","Rain"
"-82.08","42.31","CHATHAM KENT","6131414","2021-07-11 11:00","2021","07","11","11:00","18.3","","17.5","","95","","","M","9","","24","","12.9","","99.17","","","","","","Rain"
"-82.08","42.31","CHATHAM KENT","6131414","2021-07-11 12:00","2021","07","11","12:00","18.6","","17.0","","90","","","M","9","","28","","16.1","","99.14","","","","","","NA"
"-82.08","42.31","CHATHAM KENT","6131414","2021-07-11 13:00","2021","07","11","13:00","19.4","","17.1","","86","","","M","9","","26","","16.1","","99.13","","","","","","NA"
"-82.08","42.31","CHATHAM KENT","6131414","2021-07-11 14:00","2021","07","11","14:00","18.7","","17.3","","92","","","M","10","","22","","12.9","","99.11","","","","","","Rain"
"-82.08","42.31","CHATHAM KENT","6131414","2021-07-11 15:00","2021","07","11","15:00","18.7","","17.9","","95","","","M","8","","21","","6.4","","99.12","","","","","","Fog"
"-82.08","42.31","CHATHAM KENT","6131414","2021-07-11 16:00","2021","07","11","16:00","18.8","","18.2","","96","","","M","8","","18","","16.1","","99.14","","","","","","NA"
"-82.08","42.31","CHATHAM KENT","6131414","2021-07-11 17:00","2021","07","11","17:00","19.1","","18.6","","97","","","M","8","","26","","8.1","","99.08","","","","","","Fog"
"-82.08","42.31","CHATHAM KENT","6131414","2021-07-11 18:00","2021","07","11","18:00","19.3","","18.3","","94","","","M","8","","24","","16.1","","99.11","","","","","","NA"
"-82.08","42.31","CHATHAM KENT","6131414","2021-07-11 19:00","2021","07","11","19:00","19.5","","18.4","","93","","","M","8","","22","","16.1","","99.13","","","","","","NA"
"-82.08","42.31","CHATHAM KENT","6131414","2021-07-11 20:00","2021","07","11","20:00","19.2","","18.4","","95","","","M","4","","11","","16.1","","99.15","","","","","","NA"
"-82.08","42.31","CHATHAM KENT","6131414","2021-07-11 21:00","2021","07","11","21:00","19.0","","17.7","","92","","","M","5","","15","","16.1","","99.19","","","","","","NA"
"-82.08","42.31","CHATHAM KENT","6131414","2021-07-11 22:00","2021","07","11","22:00","18.8","","17.5","","92","","","M","6","","18","","16.1","","99.25","","","","","","NA"
"-82.08","42.31","CHATHAM KENT","6131414","2021-07-11 23:00","2021","07","11","23:00","18.9","","17.4","","91","","","M","7","","13","","16.1","","99.26","","","","","","NA"
"-82.08","42.31","CHATHAM KENT","6131414","2021-07-12 00:00","2021","07","12","00:00","19.4","","17.4","","88","","","M","9","","17","","16.1","","99.30","","","","","","NA"
"-82.08","42.31","CHATHAM KENT","6131414","2021-07-12 01:00","2021","07","12","01:00","18.9","","17.4","","91","","","M","7","","9","","16.1","","99.32","","","","","","NA"
"-82.08","42.31","CHATHAM KENT","6131414","2021-07-12 02:00","2021","07","12","02:00","18.5","","17.4","","93","","","M","6","","8","","16.1","","99.31","","","","","","NA"
"-82.08","42.31","CHATHAM KENT","6131414","2021-07-12 03:00","2021","07","12","03:00","18.1","","17.1","","94","","","M","4","","9","","16.1","","99.31","","","","","","NA"
"-82.08","42.31","CHATHAM KENT","6131414","2021-07-12 04:00","2021","07","12","04:00","18.0","","16.9","","93","","","M","6","","9","","16.1","","99.35","","","","","","NA"
"-82.08","42.31","CHATHAM KENT","6131414","2021-07-12 05:00","2021","07","12","05:00","18.6","","17.3","","92","","","M","9","","13","","16.1","","99.36","","","","","","NA"
"-82.08","42.31","CHATHAM KENT","6131414","2021-07-12 06:00","2021","07","12","06:00","18.8","","17.8","","94","","","M","7","","9","","16.1","","99.40","","","","","","NA"
"-82.08","42.31","CHATHAM KENT","6131414","2021-07-12 07:00","2021","07","12","07:00","19.1","","18.0","","93","","","M","11","","15","","16.1","","99.47","","","","","","NA"
"-82.08","42.31","CHATHAM KENT","6131414","2021-07-12 08:00","2021","07","12","08:00","19.1","","18.0","","93","","","M","10","","17","","16.1","","99.50","","","","","","NA"
"-82.08","42.31","CHATHAM KENT","6131414","2021-07-12 09:00","2021","07","12","09:00","19.6","","18.3","","92","","","M","9","","17","","16.1","","99.51","","","","","","NA"
"-82.08","42.31","CHATHAM KENT","6131414","2021-07-12 10:00","2021","07","12","10:00","20.1","","18.6","","91","","","M","10","","18","","16.1","","99.56","","27","","","","NA"
"-82.08","42.31","CHATHAM KENT","6131414","2021-07-12 11:00","2021","07","12","11:00","20.9","","19.2","","90","","","M","11","","21","","16.1","","99.58","","28","","","","NA"
"-82.08","42.31","CHATHAM KENT","6131414","2021-07-12 12:00","2021","07","12","12:00","21.0","","19.3","","90","","","M","10","","18","","16.1","","99.60","","28","","","","NA"
"-82.08","42.31","CHATHAM KENT","6131414","2021-07-12 13:00","2021","07","12","13:00","20.6","","19.1","","91","","","M","11","","18","","16.1","","99.60","","27","","","","NA"
"-82.08","42.31","CHATHAM KENT","6131414","2021-07-12 14:00","2021","07","12","14:00","21.0","","19.2","","89","","","M","11","","13","","16.1","","99.60","","28","","","","NA"
"-82.08","42.31","CHATHAM KENT","6131414","2021-07-12 15:00","2021","07","12","15:00","21.0","","19.3","","90","","","M","9","","13","","16.1","","99.55","","28","","","","NA"
"-82.08","42.31","CHATHAM KENT","6131414","2021-07-12 16:00","2021","07","12","16:00","21.5","","19.2","","86","","","M","9","","18","","16.1","","99.55","","28","","","","NA"
"-82.08","42.31","CHATHAM KENT","6131414","2021-07-12 17:00","2021","07","12","17:00","20.8","","19.0","","89","","","M","11","","17","","16.1","","99.53","","28","","","","NA"
"-82.08","42.31","CHATHAM KENT","6131414","2021-07-12 18:00","2021","07","12","18:00","20.8","","19.0","","89","","","M","12","","18","","16.1","","99.51","","28","","","","NA"
"-82.08","42.31","CHATHAM KENT","6131414","2021-07-12 19:00","2021","07","12","19:00","20.4","","19.1","","92","","","M","11","","15","","16.1","","99.56","","27","","","","NA"
"-82.08","42.31","CHATHAM KENT","6131414","2021-07-12 20:00","2021","07","12","20:00","20.1","","19.1","","94","","","M","12","","17","","16.1","","99.54","","27","","","","NA"
"-82.08","42.31","CHATHAM KENT","6131414","2021-07-12 21:00","2021","07","12","21:00","19.8","","19.2","","96","","","M","11","","13","","16.1","","99.54","","","","","","NA"
"-82.08","42.31","CHATHAM KENT","6131414","2021-07-12 22:00","2021","07","12","22:00","19.6","","19.1","","97","","","M","13","","13","","16.1","","99.52","","","","","","NA"
"-82.08","42.31","CHATHAM KENT","6131414","2021-07-12 23:00","2021","07","12","23:00","19.9","","19.3","","97","","","M","14","","9","","16.1","","99.54","","","","","","NA"
"-82.08","42.31","CHATHAM KENT","6131414","2021-07-13 00:00","2021","07","13","00:00","20.3","","19.8","","97","","","M","10","","5","","16.1","","99.52","","28","","","","NA"
"-82.08","42.31","CHATHAM KENT","6131414","2021-07-13 01:00","2021","07","13","01:00","20.5","","20.2","","98","","","M","10","","9","","12.9","","99.46","","28","","","","NA"
"-82.08","42.31","CHATHAM KENT","6131414","2021-07-13 02:00","2021","07","13","02:00","20.5","","20.3","","99","","","M","13","","8","","9.7","","99.46","","28","","","","Fog"
"-82.08","42.31","CHATHAM KENT","6131414","2021-07-13 03:00","2021","07","13","03:00","20.5","","20.5","","100","","","M","13","","8","","6.4","","99.44","","28","","","","Fog"
"-82.08","42.31","CHATHAM KENT","6131414","2021-07-13 04:00","2021","07","13","04:00","20.8","","20.6","","99","","","M","16","","11","","11.3","","99.42","","29","","","","Rain"
"-82.08","42.31","CHATHAM KENT","6131414","2021-07-13 05:00","2021","07","13","05:00","21.2","","21.0","","99","","","M","19","","11","","11.3","","99.45","","30","","","","Rain"
"-82.08","42.31","CHATHAM KENT","6131414","2021-07-13 06:00","2021","07","13","06:00","21.1","","20.9","","99","","","M","18","","11","","14.5","","99.45","","29","","","","NA"
"-82.08","42.31","CHATHAM KENT","6131414","2021-07-13 07:00","2021","07","13","07:00","21.9","","21.6","","98","","","M","19","","11","","16.1","","99.44","","31","","","","NA"
"-82.08","42.31","CHATHAM KENT","6131414","2021-07-13 08:00","2021","07","13","08:00","22.4","","21.7","","96","","","M","18","","13","","16.1","","99.47","","31","","","","NA"
"-82.08","42.31","CHATHAM KENT","6131414","2021-07-13 09:00","2021","07","13","09:00","22.7","","21.7","","94","","","M","19","","17","","16.1","","99.46","","32","","","","NA"
"-82.08","42.31","CHATHAM KENT","6131414","2021-07-13 10:00","2021","07","13","10:00","23.2","","21.7","","91","","","M","21","","21","","16.1","","99.46","","32","","","","NA"
"-82.08","42.31","CHATHAM KENT","6131414","2021-07-13 11:00","2021","07","13","11:00","23.4","","22.0","","92","","","M","21","","26","","16.1","","99.42","","33","","","","NA"
"-82.08","42.31","CHATHAM KENT","6131414","2021-07-13 12:00","2021","07","13","12:00","23.5","","21.7","","90","","","M","21","","30","","16.1","","99.39","","33","","","","NA"
"-82.08","42.31","CHATHAM KENT","6131414","2021-07-13 13:00","2021","07","13","13:00","24.3","","21.8","","86","","","M","22","","37","","16.1","","99.36","","33","","","","NA"
"-82.08","42.31","CHATHAM KENT","6131414","2021-07-13 14:00","2021","07","13","14:00","24.2","","21.6","","85","","","M","22","","34","","16.1","","99.32","","33","","","","NA"
"-82.08","42.31","CHATHAM KENT","6131414","2021-07-13 15:00","2021","07","13","15:00","24.3","","21.6","","85","","","M","21","","26","","16.1","","99.34","","33","","","","NA"
"-82.08","42.31","CHATHAM KENT","6131414","2021-07-13 16:00","2021","07","13","16:00","24.5","","21.4","","82","","","M","21","","21","","16.1","","99.29","","33","","","","NA"
"-82.08","42.31","CHATHAM KENT","6131414","2021-07-13 17:00","2021","07","13","17:00","23.9","","21.5","","86","","","M","21","","28","","16.1","","99.28","","33","","","","Rain"
"-82.08","42.31","CHATHAM KENT","6131414","2021-07-13 18:00","2021","07","13","18:00","22.9","","21.2","","90","","","M","19","","17","","16.1","","99.29","","31","","","","Thunderstorms"
"-82.08","42.31","CHATHAM KENT","6131414","2021-07-13 19:00","2021","07","13","19:00","20.2","","19.7","","97","","","M","22","","17","","14.5","","99.33","","28","","","","Thunderstorms,Rain"
"-82.08","42.31","CHATHAM KENT","6131414","2021-07-13 20:00","2021","07","13","20:00","20.3","","20.0","","98","","","M","20","","11","","16.1","","99.30","","28","","","","NA"
"-82.08","42.31","CHATHAM KENT","6131414","2021-07-13 21:00","2021","07","13","21:00","20.0","","19.8","","99","","","M","23","","11","","16.1","","99.34","","27","","","","NA"
"-82.08","42.31","CHATHAM KENT","6131414","2021-07-13 22:00","2021","07","13","22:00","20.5","","20.2","","98","","","M","23","","11","","16.1","","99.38","","28","","","","NA"
"-82.08","42.31","CHATHAM KENT","6131414","2021-07-13 23:00","2021","07","13","23:00","20.5","","20.0","","97","","","M","25","","9","","16.1","","99.38","","28","","","","NA"
"-82.08","42.31","CHATHAM KENT","6131414","2021-07-14 00:00","2021","07","14","00:00","19.7","","19.4","","98","","","M","24","","9","","16.1","","99.41","","","","","","NA"
"-82.08","42.31","CHATHAM KENT","6131414","2021-07-14 01:00","2021","07","14","01:00","19.7","","19.5","","99","","","M","25","","8","","16.1","","99.45","","","","","","NA"
"-82.08","42.31","CHATHAM KENT","6131414","2021-07-14 02:00","2021","07","14","02:00","19.3","","19.1","","99","","","M","24","","8","","14.5","","99.46","","","","","","NA"
"-82.08","42.31","CHATHAM KENT","6131414","2021-07-14 03:00","2021","07","14","03:00","20.1","","19.9","","99","","","M","25","","9","","16.1","","99.49","","28","","","","NA"
"-82.08","42.31","CHATHAM KENT","6131414","2021-07-14 04:00","2021","07","14","04:00","20.5","","20.2","","98","","","M","27","","9","","12.9","","99.52","","28","","","","NA"
"-82.08","42.31","CHATHAM KENT","6131414","2021-07-14 05:00","2021","07","14","05:00","20.5","","20.2","","98","","","M","28","","11","","11.3","","99.58","","28","","","","NA"
"-82.08","42.31","CHATHAM KENT","6131414","2021-07-14 06:00","2021","07","14","06:00","20.3","","19.8","","97","","","M","27","","11","","12.9","","99.63","","28","","","","NA"
"-82.08","42.31","CHATHAM KENT","6131414","2021-07-14 07:00","2021","07","14","07:00","20.8","","20.0","","95","","","M","27","","8","","16.1","","99.68","","28","","","","NA"
"-82.08","42.31","CHATHAM KENT","6131414","2021-07-14 08:00","2021","07","14","08:00","21.5","","19.8","","90","","","M","26","","11","","16.1","","99.70","","29","","","","NA"
"-82.08","42.31","CHATHAM KENT","6131414","2021-07-14 09:00","2021","07","14","09:00","23.1","","20.0","","82","","","M","27","","15","","16.1","","99.72","","31","","","","NA"
"-82.08","42.31","CHATHAM KENT","6131414","2021-07-14 10:00","2021","07","14","10:00","24.3","","20.0","","77","","","M","28","","11","","16.1","","99.72","","32","","","","NA"
"-82.08","42.31","CHATHAM KENT","6131414","2021-07-14 11:00","2021","07","14","11:00","25.5","","19.3","","68","","","M","29","","13","","16.1","","99.74","","33","","","","NA"
"-82.08","42.31","CHATHAM KENT","6131414","2021-07-14 12:00","2021","07","14","12:00","24.9","","21.9","","83","","","M","21","","24","","16.1","","99.80","","34","","","","NA"
"-82.08","42.31","CHATHAM KENT","6131414","2021-07-14 13:00","2021","07","14","13:00","25.0","","20.5","","76","","","M","22","","17","","16.1","","99.73","","33","","","","NA"
"-82.08","42.31","CHATHAM KENT","6131414","2021-07-14 14:00","2021","07","14","14:00","25.8","","20.7","","73","","","M","22","","21","","16.1","","99.68","","34","","","","NA"
"-82.08","42.31","CHATHAM KENT","6131414","2021-07-14 15:00","2021","07","14","15:00","25.7","","21.6","","78","","","M","21","","21","","16.1","","99.65","","35","","","","NA"
"-82.08","42.31","CHATHAM KENT","6131414","2021-07-14 16:00","2021","07","14","16:00","25.4","","21.2","","77","","","M","22","","22","","16.1","","99.64","","34","","","","NA"
"-82.08","42.31","CHATHAM KENT","6131414","2021-07-14 17:00","2021","07","14","17:00","25.2","","21.2","","78","","","M","22","","18","","16.1","","99.61","","34","","","","NA"
"-82.08","42.31","CHATHAM KENT","6131414","2021-07-14 18:00","2021","07","14","18:00","24.3","","21.4","","84","","","M","22","","13","","16.1","","99.60","","33","","","","NA"
"-82.08","42.31","CHATHAM KENT","6131414","2021-07-14 19:00","2021","07","14","19:00","22.9","","21.2","","90","","","M","20","","9","","16.1","","99.59","","31","","","","NA"
"-82.08","42.31","CHATHAM KENT","6131414","2021-07-14 20:00","2021","07","14","20:00","21.9","","21.1","","95","","","M","19","","9","","16.1","","99.60","","30","","","","NA"
"-82.08","42.31","CHATHAM KENT","6131414","2021-07-14 21:00","2021","07","14","21:00","21.1","","20.6","","97","","","M","18","","9","","16.1","","99.57","","29","","","","NA"
"-82.08","42.31","CHATHAM KENT","6131414","2021-07-14 22:00","2021","07","14","22:00","20.7","","20.1","","96","","","M","18","","11","","16.1","","99.55","","28","","","","NA"
"-82.08","42.31","CHATHAM KENT","6131414","2021-07-14 23:00","2021","07","14","23:00","21.0","","20.4","","96","","","M","19","","9","","16.1","","99.55","","29","","","","NA"
"-82.08","42.31","CHATHAM KENT","6131414","2021-07-15 00:00","2021","07","15","00:00","21.3","","20.1","","93","","","M","19","","11","","16.1","","99.53","","29","","","","NA"
"-82.08","42.31","CHATHAM KENT","6131414","2021-07-15 01:00","2021","07","15","01:00","22.0","","20.3","","90","","","M","20","","15","","16.1","","99.53","","30","","","","NA"
"-82.08","42.31","CHATHAM KENT","6131414","2021-07-15 02:00","2021","07","15","02:00","21.5","","20.7","","95","","","M","22","","11","","16.1","","99.53","","30","","","","NA"
"-82.08","42.31","CHATHAM KENT","6131414","2021-07-15 03:00","2021","07","15","03:00","21.3","","20.7","","96","","","M","21","","11","","16.1","","99.46","","29","","","","NA"
"-82.08","42.31","CHATHAM KENT","6131414","2021-07-15 04:00","2021","07","15","04:00","20.9","","20.4","","97","","","M","21","","11","","16.1","","99.42","","29","","","","NA"
"-82.08","42.31","CHATHAM KENT","6131414","2021-07-15 05:00","2021","07","15","05:00","21.3","","20.7","","96","","","M","21","","13","","16.1","","99.37","","29","","","","NA"
"-82.08","42.31","CHATHAM KENT","6131414","2021-07-15 06:00","2021","07","15","06:00","21.7","","20.5","","93","","","M","21","","18","","16.1","","99.34","","30","","","","NA"
"-82.08","42.31","CHATHAM KENT","6131414","2021-07-15 07:00","2021","07","15","07:00","22.3","","20.6","","90","","","M","21","","21","","16.1","","99.33","","30","","","","NA"
"-82.08","42.31","CHATHAM KENT","6131414","2021-07-15 08:00","2021","07","15","08:00","23.5","","21.1","","86","","","M","22","","22","","16.1","","99.28","","32","","","","NA"
"-82.08","42.31","CHATHAM KENT","6131414","2021-07-15 09:00","2021","07","15","09:00","23.7","","21.3","","86","","","M","22","","26","","16.1","","99.25","","32","","","","NA"
"-82.08","42.31","CHATHAM KENT","6131414","2021-07-15 10:00","2021","07","15","10:00","24.5","","21.5","","83","","","M","22","","34","","16.1","","99.21","","33","","","","NA"
"-82.08","42.31","CHATHAM KENT","6131414","2021-07-15 11:00","2021","07","15","11:00","25.5","","22.1","","81","","","M","22","","34","","16.1","","99.20","","35","","","","NA"
"-82.08","42.31","CHATHAM KENT","6131414","2021-07-15 12:00","2021","07","15","12:00","25.8","","22.2","","80","","","M","22","","30","","16.1","","99.20","","35","","","","NA"
"-82.08","42.31","CHATHAM KENT","6131414","2021-07-15 13:00","2021","07","15","13:00","27.0","","22.7","","77","","","M","22","","24","","16.1","","99.17","","37","","","","NA"
"-82.08","42.31","CHATHAM KENT","6131414","2021-07-15 14:00","2021","07","15","14:00","27.0","","22.5","","76","","","M","22","","28","","16.1","","99.09","","37","","","","NA"
"-82.08","42.31","CHATHAM KENT","6131414","2021-07-15 15:00","2021","07","15","15:00","27.2","","22.9","","77","","","M","19","","17","","16.1","","99.02","","37","","","","NA"
"-82.08","42.31","CHATHAM KENT","6131414","2021-07-15 16:00","2021","07","15","16:00","25.2","","22.2","","83","","","M","20","","26","","16.1","","99.07","","35","","","","NA"
"-82.08","42.31","CHATHAM KENT","6131414","2021-07-15 17:00","2021","07","15","17:00","24.1","","20.7","","81","","","M","23","","15","","16.1","","99.02","","32","","","","NA"
"-82.08","42.31","CHATHAM KENT","6131414","2021-07-15 18:00","2021","07","15","18:00","24.6","","21.6","","83","","","M","21","","13","","16.1","","99.00","","34","","","","NA"
"-82.08","42.31","CHATHAM KENT","6131414","2021-07-15 19:00","2021","07","15","19:00","24.2","","21.4","","84","","","M","24","","17","","16.1","","98.98","","33","","","","NA"
"-82.08","42.31","CHATHAM KENT","6131414","2021-07-15 20:00","2021","07","15","20:00","23.4","","21.1","","87","","","M","25","","17","","16.1","","99.02","","32","","","","NA"
"-82.08","42.31","CHATHAM KENT","6131414","2021-07-15 21:00","2021","07","15","21:00","22.7","","20.7","","88","","","M","30","","17","","16.1","","99.11","","31","","","","NA"
"-82.08","42.31","CHATHAM KENT","6131414","2021-07-15 22:00","2021","07","15","22:00","21.7","","21.1","","96","","","M","28","","8","","16.1","","99.17","","30","","","","NA"
"-82.08","42.31","CHATHAM KENT","6131414","2021-07-15 23:00","2021","07","15","23:00","22.0","","20.9","","93","","","M","36","","15","","16.1","","99.19","","30","","","","NA"
"-82.08","42.31","CHATHAM KENT","6131414","2021-07-16 00:00","2021","07","16","00:00","20.6","","19.5","","93","","","M","36","","5","","16.1","","99.26","","28","","","","NA"
"-82.08","42.31","CHATHAM KENT","6131414","2021-07-16 01:00","2021","07","16","01:00","20.1","","19.0","","93","","","M","3","","4","","16.1","","99.26","","27","","","","NA"
"-82.08","42.31","CHATHAM KENT","6131414","2021-07-16 02:00","2021","07","16","02:00","19.5","","18.7","","95","","","M","5","","5","","16.1","","99.25","","","","","","NA"
"-82.08","42.31","CHATHAM KENT","6131414","2021-07-16 03:00","2021","07","16","03:00","19.3","","18.7","","96","","","M","11","","4","","16.1","","99.25","","","","","","NA"
"-82.08","42.31","CHATHAM KENT","6131414","2021-07-16 04:00","2021","07","16","04:00","19.5","","18.7","","95","","","M","13","","4","","16.1","","99.27","","","","","","NA"
"-82.08","42.31","CHATHAM KENT","6131414","2021-07-16 05:00","2021","07","16","05:00","19.8","","18.7","","93","","","M","10","","8","","16.1","","99.31","","","","","","NA"
"-82.08","42.31","CHATHAM KENT","6131414","2021-07-16 06:00","2021","07","16","06:00","19.4","","18.8","","96","","","M","","M","4","","4.8","","99.38","","","","","","Heavy Rain,Fog"
"-82.08","42.31","CHATHAM KENT","6131414","2021-07-16 07:00","2021","07","16","07:00","19.0","","18.5","","97","","","M","12","","9","","16.1","","99.39","","","","","","Rain"
"-82.08","42.31","CHATHAM KENT","6131414","2021-07-16 08:00","2021","07","16","08:00","19.1","","18.5","","96","","","M","8","","13","","12.9","","99.39","","","","","","Rain"
"-82.08","42.31","CHATHAM KENT","6131414","2021-07-16 09:00","2021","07","16","09:00","19.3","","18.8","","97","","","M","9","","13","","12.9","","99.39","","","","","","Rain"
"-82.08","42.31","CHATHAM KENT","6131414","2021-07-16 10:00","2021","07","16","10:00","19.3","","18.7","","96","","","M","7","","17","","16.1","","99.38","","","","","","Rain"
"-82.08","42.31","CHATHAM KENT","6131414","2021-07-16 11:00","2021","07","16","11:00","19.3","","18.7","","96","","","M","9","","18","","6.4","","99.41","","","","","","Rain,Fog"
"-82.08","42.31","CHATHAM KENT","6131414","2021-07-16 12:00","2021","07","16","12:00","19.1","","18.8","","98","","","M","8","","18","","4.8","","99.39","","","","","","Rain,Fog"
"-82.08","42.31","CHATHAM KENT","6131414","2021-07-16 13:00","2021","07","16","13:00","19.0","","18.7","","98","","","M","7","","22","","4.8","","99.28","","","","","","Rain,Fog"
"-82.08","42.31","CHATHAM KENT","6131414","2021-07-16 14:00","2021","07","16","14:00","18.7","","18.4","","98","","","M","5","","18","","4.8","","99.37","","","","","","Moderate Rain,Fog"
"-82.08","42.31","CHATHAM KENT","6131414","2021-07-16 15:00","2021","07","16","15:00","19.3","","18.8","","97","","","M","6","","13","","16.1","","99.35","","","","","","Rain"
"-82.08","42.31","CHATHAM KENT","6131414","2021-07-16 16:00","2021","07","16","16:00","19.4","","18.9","","97","","","M","9","","17","","16.1","","99.28","","","","","","Rain"
"-82.08","42.31","CHATHAM KENT","6131414","2021-07-16 17:00","2021","07","16","17:00","19.2","","18.7","","97","","","M","9","","17","","16.1","","99.28","","","","","","NA"
"-82.08","42.31","CHATHAM KENT","6131414","2021-07-16 18:00","2021","07","16","18:00","19.6","","19.0","","96","","","M","10","","15","","16.1","","99.26","","","","","","NA"
"-82.08","42.31","CHATHAM KENT","6131414","2021-07-16 19:00","2021","07","16","19:00","19.3","","18.7","","96","","","M","6","","15","","16.1","","99.23","","","","","","NA"
"-82.08","42.31","CHATHAM KENT","6131414","2021-07-16 20:00","2021","07","16","20:00","19.1","","18.5","","96","","","M","10","","11","","16.1","","99.28","","","","","","Rain"
"-82.08","42.31","CHATHAM KENT","6131414","2021-07-16 21:00","2021","07","16","21:00","19.3","","18.7","","96","","","M","9","","9","","16.1","","99.34","","","","","","Rain"
"-82.08","42.31","CHATHAM KENT","6131414","2021-07-16 22:00","2021","07","16","22:00","19.3","","19.0","","98","","","M","11","","11","","16.1","","99.34","","","","","","NA"
"-82.08","42.31","CHATHAM KENT","6131414","2021-07-16 23:00","2021","07","16","23:00","19.3","","19.0","","98","","","M","10","","9","","14.5","","99.28","","","","","","Rain"
"-82.08","42.31","CHATHAM KENT","6131414","2021-07-17 00:00","2021","07","17","00:00","19.1","","18.9","","99","","","M","1","","8","","6.4","","99.31","","","","","","Rain,Fog"
"-82.08","42.31","CHATHAM KENT","6131414","2021-07-17 01:00","2021","07","17","01:00","18.6","","18.4","","99","","","M","3","","11","","6.4","","99.28","","","","","","Rain,Fog"
"-82.08","42.31","CHATHAM KENT","6131414","2021-07-17 02:00","2021","07","17","02:00","18.0","","17.8","","99","","","M","5","","18","","9.7","","99.23","","","","","","Rain,Fog"
"-82.08","42.31","CHATHAM KENT","6131414","2021-07-17 03:00","2021","07","17","03:00","18.2","","17.9","","98","","","M","7","","11","","9.7","","99.24","","","","","","Rain,Fog"
"-82.08","42.31","CHATHAM KENT","6131414","2021-07-17 04:00","2021","07","17","04:00","18.4","","18.2","","99","","","M","6","","13","","16.1","","99.22","","","","","","Rain"
"-82.08","42.31","CHATHAM KENT","6131414","2021-07-17 05:00","2021","07","17","05:00","18.2","","18.0","","99","","","M","5","","15","","8.1","","99.24","","","","","","Rain,Fog"
"-82.08","42.31","CHATHAM KENT","6131414","2021-07-17 06:00","2021","07","17","06:00","17.6","","17.4","","99","","","M","4","","17","","11.3","","99.25","","","","","","Rain"
"-82.08","42.31","CHATHAM KENT","6131414","2021-07-17 07:00","2021","07","17","07:00","17.6","","17.3","","98","","","M","6","","11","","16.1","","99.29","","","","","","Rain"
"-82.08","42.31","CHATHAM KENT","6131414","2021-07-17 08:00","2021","07","17","08:00","17.9","","17.5","","98","","","M","5","","13","","16.1","","99.31","","","","","","Rain"
"-82.08","42.31","CHATHAM KENT","6131414","2021-07-17 09:00","2021","07","17","09:00","17.7","","17.2","","97","","","M","36","","22","","16.1","","99.40","","","","","","NA"
"-82.08","42.31","CHATHAM KENT","6131414","2021-07-17 10:00","2021","07","17","10:00","18.3","","17.2","","93","","","M","1","","21","","16.1","","99.41","","","","","","NA"
"-82.08","42.31","CHATHAM KENT","6131414","2021-07-17 11:00","2021","07","17","11:00","19.6","","17.1","","85","","","M","3","","17","","16.1","","99.47","","","","","","NA"
"-82.08","42.31","CHATHAM KENT","6131414","2021-07-17 12:00","2021","07","17","12:00","21.6","","18.8","","84","","","M","5","","22","","16.1","","99.48","","28","","","","NA"
"-82.08","42.31","CHATHAM KENT","6131414","2021-07-17 13:00","2021","07","17","13:00","23.0","","18.4","","75","","","M","3","","21","","16.1","","99.44","","29","","","","NA"
"-82.08","42.31","CHATHAM KENT","6131414","2021-07-17 14:00","2021","07","17","14:00","24.2","","18.0","","68","","","M","2","","21","","16.1","","99.42","","30","","","","NA"
"-82.08","42.31","CHATHAM KENT","6131414","2021-07-17 15:00","2021","07","17","15:00","24.9","","17.8","","64","","","M","3","","18","","16.1","","99.44","","31","","","","NA"
"-82.08","42.31","CHATHAM KENT","6131414","2021-07-17 16:00","2021","07","17","16:00","25.3","","16.8","","59","","","M","1","","17","","16.1","","99.46","","30","","","","NA"
"-82.08","42.31","CHATHAM KENT","6131414","2021-07-17 17:00","2021","07","17","17:00","24.7","","15.0","","54","","","M","4","","18","","16.1","","99.49","","29","","","","NA"
"-82.08","42.31","CHATHAM KENT","6131414","2021-07-17 18:00","2021","07","17","18:00","23.6","","16.1","","62","","","M","4","","18","","16.1","","99.50","","28","","","","NA"
"-82.08","42.31","CHATHAM KENT","6131414","2021-07-17 19:00","2021","07","17","19:00","22.5","","18.3","","77","","","M","2","","11","","16.1","","99.55","","29","","","","NA"
"-82.08","42.31","CHATHAM KENT","6131414","2021-07-17 20:00","2021","07","17","20:00","20.3","","17.4","","83","","","M","35","","9","","16.1","","99.58","","26","","","","NA"
"-82.08","42.31","CHATHAM KENT","6131414","2021-07-17 21:00","2021","07","17","21:00","18.4","","17.1","","92","","","M","35","","5","","16.1","","99.65","","","","","","NA"
"-82.08","42.31","CHATHAM KENT","6131414","2021-07-17 22:00","2021","07","17","22:00","17.0","","16.5","","97","","","M","35","","8","","16.1","","99.68","","","","","","NA"
"-82.08","42.31","CHATHAM KENT","6131414","2021-07-17 23:00","2021","07","17","23:00","16.9","","16.3","","96","","","M","36","","9","","16.1","","99.71","","","","","","NA"
"-82.08","42.31","CHATHAM KENT","6131414","2021-07-18 00:00","2021","07","18","00:00","15.6","","15.1","","97","","","M","33","","8","","16.1","","99.72","","","","","","NA"
"-82.08","42.31","CHATHAM KENT","6131414","2021-07-18 01:00","2021","07","18","01:00","15.3","","15.2","","99","","","M","32","","9","","8.1","","99.73","","","","","","Fog"
"-82.08","42.31","CHATHAM KENT","6131414","2021-07-18 02:00","2021","07","18","02:00","15.7","","15.6","","99","","","M","35","","8","","14.5","","99.76","","","","","","NA"
"-82.08","42.31","CHATHAM KENT","6131414","2021-07-18 03:00","2021","07","18","03:00","15.4","","15.3","","99","","","M","36","","9","","16.1","","99.76","","","","","","NA"
"-82.08","42.31","CHATHAM KENT","6131414","2021-07-18 04:00","2021","07","18","04:00","15.2","","15.1","","99","","","M","34","","8","","14.5","","99.78","","","","","","NA"
"-82.08","42.31","CHATHAM KENT","6131414","2021-07-18 05:00","2021","07","18","05:00","15.1","","15.0","","99","","","M","34","","9","","16.1","","99.81","","","","","","NA"
"-82.08","42.31","CHATHAM KENT","6131414","2021-07-18 06:00","2021","07","18","06:00","15.6","","15.5","","99","","","M","32","","9","","16.1","","99.87","","","","","","NA"
"-82.08","42.31","CHATHAM KENT","6131414","2021-07-18 07:00","2021","07","18","07:00","16.7","","15.8","","95","","","M","30","","8","","16.1","","99.89","","","","","","NA"
"-82.08","42.31","CHATHAM KENT","6131414","2021-07-18 08:00","2021","07","18","08:00","19.0","","16.5","","85","","","M","32","","9","","16.1","","99.90","","","","","","NA"
"-82.08","42.31","CHATHAM KENT","6131414","2021-07-18 09:00","2021","07","18","09:00","21.5","","16.7","","74","","","M","33","","13","","16.1","","99.88","","27","","","","NA"
"-82.08","42.31","CHATHAM KENT","6131414","2021-07-18 10:00","2021","07","18","10:00","23.7","","16.9","","65","","","M","33","","18","","16.1","","99.87","","29","","","","NA"
"-82.08","42.31","CHATHAM KENT","6131414","2021-07-18 11:00","2021","07","18","11:00","25.1","","18.0","","64","","","M","35","","18","","16.1","","99.84","","31","","","","NA"
"-82.08","42.31","CHATHAM KENT","6131414","2021-07-18 12:00","2021","07","18","12:00","26.0","","18.0","","61","","","M","34","","21","","16.1","","99.83","","32","","","","NA"
"-82.08","42.31","CHATHAM KENT","6131414","2021-07-18 13:00","2021","07","18","13:00","26.9","","18.3","","59","","","M","34","","17","","16.1","","99.80","","33","","","","NA"
"-82.08","42.31","CHATHAM KENT","6131414","2021-07-18 14:00","2021","07","18","14:00","26.8","","17.1","","55","","","M","1","","24","","16.1","","99.78","","32","","","","NA"
"-82.08","42.31","CHATHAM KENT","6131414","2021-07-18 15:00","2021","07","18","15:00","26.5","","16.4","","53","","","M","1","","22","","16.1","","99.76","","31","","","","NA"
"-82.08","42.31","CHATHAM KENT","6131414","2021-07-18 16:00","2021","07","18","16:00","26.4","","14.6","","48","","","M","1","","21","","16.1","","99.75","","30","","","","NA"
"-82.08","42.31","CHATHAM KENT","6131414","2021-07-18 17:00","2021","07","18","17:00","25.6","","14.9","","51","","","M","1","","18","","16.1","","99.75","","30","","","","NA"
"-82.08","42.31","CHATHAM KENT","6131414","2021-07-18 18:00","2021","07","18","18:00","24.6","","15.3","","56","","","M","2","","15","","16.1","","99.70","","29","","","","NA"
"-82.08","42.31","CHATHAM KENT","6131414","2021-07-18 19:00","2021","07","18","19:00","22.8","","16.7","","68","","","M","2","","9","","16.1","","99.72","","28","","","","NA"
"-82.08","42.31","CHATHAM KENT","6131414","2021-07-18 20:00","2021","07","18","20:00","20.2","","17.1","","82","","","M","1","","8","","16.1","","99.71","","26","","","","NA"
"-82.08","42.31","CHATHAM KENT","6131414","2021-07-18 21:00","2021","07","18","21:00","19.3","","16.9","","86","","","M","1","","8","","16.1","","99.72","","","","","","NA"
"-82.08","42.31","CHATHAM KENT","6131414","2021-07-18 22:00","2021","07","18","22:00","18.2","","15.9","","86","","","M","34","","8","","16.1","","99.74","","","","","","NA"
"-82.08","42.31","CHATHAM KENT","6131414","2021-07-18 23:00","2021","07","18","23:00","17.3","","16.3","","94","","","M","26","","4","","16.1","","99.76","","","","","","NA"
"-82.08","42.31","CHATHAM KENT","6131414","2021-07-19 00:00","2021","07","19","00:00","17.7","","15.9","","89","","","M","","","0","","16.1","","99.73","","","","","","NA"
"-82.08","42.31","CHATHAM KENT","6131414","2021-07-19 01:00","2021","07","19","01:00","16.6","","16.1","","97","","","M","28","","4","","16.1","","99.71","","","","","","NA"
"-82.08","42.31","CHATHAM KENT","6131414","2021-07-19 02:00","2021","07","19","02:00","16.2","","15.7","","97","","","M","","","0","","16.1","","99.66","","","","","","NA"
"-82.08","42.31","CHATHAM KENT","6131414","2021-07-19 03:00","2021","07","19","03:00","16.5","","15.9","","96","","","M","","","0","","16.1","","99.64","","","","","","NA"
"-82.08","42.31","CHATHAM KENT","6131414","2021-07-19 04:00","2021","07","19","04:00","16.2","","15.7","","97","","","M","1","","5","","16.1","","99.64","","","","","","NA"
"-82.08","42.31","CHATHAM KENT","6131414","2021-07-19 05:00","2021","07","19","05:00","15.6","","15.1","","97","","","M","28","","5","","16.1","","99.65","","","","","","NA"
"-82.08","42.31","CHATHAM KENT","6131414","2021-07-19 06:00","2021","07","19","06:00","16.0","","15.5","","97","","","M","","","0","","16.1","","99.68","","","","","","NA"
"-82.08","42.31","CHATHAM KENT","6131414","2021-07-19 07:00","2021","07","19","07:00","18.4","","17.1","","92","","","M","29","","4","","16.1","","99.68","","","","","","NA"
"-82.08","42.31","CHATHAM KENT","6131414","2021-07-19 08:00","2021","07","19","08:00","20.6","","18.6","","88","","","M","32","","11","","16.1","","99.66","","27","","","","NA"
"-82.08","42.31","CHATHAM KENT","6131414","2021-07-19 09:00","2021","07","19","09:00","22.9","","18.4","","75","","","M","33","","9","","16.1","","99.67","","29","","","","NA"
"-82.08","42.31","CHATHAM KENT","6131414","2021-07-19 10:00","2021","07","19","10:00","24.4","","17.3","","64","","","M","34","","15","","16.1","","99.67","","30","","","","NA"
"-82.08","42.31","CHATHAM KENT","6131414","2021-07-19 11:00","2021","07","19","11:00","25.5","","19.0","","67","","","M","32","","15","","16.1","","99.63","","32","","","","NA"
"-82.08","42.31","CHATHAM KENT","6131414","2021-07-19 12:00","2021","07","19","12:00"
"-82.08","42.31","CHATHAM KENT","6131414","2021-07-19 13:00","2021","07","19","13:00","26.9","","18.5","","60","","0.0","","32","","5","","12.9","","99.55","","33","","","","NA"
"-82.08","42.31","CHATHAM KENT","6131414","2021-07-19 14:00","2021","07","19","14:00","27.7","","20.1","","63","","0.0","","31","","11","","12.9","","99.53","","35","","","","NA"
"-82.08","42.31","CHATHAM KENT","6131414","2021-07-19 15:00","2021","07","19","15:00","27.3","","20.9","","68","","0.0","","30","","9","","16.1","","99.51","","36","","","","NA"
"-82.08","42.31","CHATHAM KENT","6131414","2021-07-19 16:00","2021","07","19","16:00","27.9","","19.9","","61","","0.0","","32","","15","","9.7","","99.49","","35","","","","Haze"
"-82.08","42.31","CHATHAM KENT","6131414","2021-07-19 17:00","2021","07","19","17:00","27.0","","20.7","","68","","0.0","","30","","11","","14.5","","99.44","","35","","","","NA"
"-82.08","42.31","CHATHAM KENT","6131414","2021-07-19 18:00","2021","07","19","18:00","26.8","","20.5","","68","","0.0","","31","","13","","12.9","","99.42","","35","","","","NA"
"-82.08","42.31","CHATHAM KENT","6131414","2021-07-19 19:00","2021","07","19","19:00","25.0","","21.0","","78","","0.0","","2","","8","","14.5","","99.42","","33","","","","NA"
"-82.08","42.31","CHATHAM KENT","6131414","2021-07-19 20:00","2021","07","19","20:00","23.2","","20.2","","83","","0.0","","2","","4","","11.3","","99.42","","31","","","","NA"
"-82.08","42.31","CHATHAM KENT","6131414","2021-07-19 21:00","2021","07","19","21:00","21.9","","19.4","","85","","0.0","","","","0","","11.3","","99.45","","29","","","","NA"
"-82.08","42.31","CHATHAM KENT","6131414","2021-07-19 22:00","2021","07","19","22:00","20.4","","19.8","","96","","0.0","","24","","5","","11.3","","99.47","","28","","","","NA"
"-82.08","42.31","CHATHAM KENT","6131414","2021-07-19 23:00","2021","07","19","23:00","19.7","","19.4","","98","","0.0","","30","","4","","6.4","","99.46","","","","","","Fog"
"-82.08","42.31","CHATHAM KENT","6131414","2021-07-20 00:00","2021","07","20","00:00","19.4","","19.1","","98","","0.0","","25","","4","","6.4","","99.43","","","","","","Fog"
"-82.08","42.31","CHATHAM KENT","6131414","2021-07-20 01:00","2021","07","20","01:00","19.1","","18.8","","98","","0.0","","","","0","","6.4","","99.37","","","","","","Fog"
"-82.08","42.31","CHATHAM KENT","6131414","2021-07-20 02:00","2021","07","20","02:00","18.7","","18.4","","98","","0.0","","","","0","","4.8","","99.30","","","","","","Fog"
"-82.08","42.31","CHATHAM KENT","6131414","2021-07-20 03:00","2021","07","20","03:00","18.3","","18.0","","98","","0.0","","","","0","","4.8","","99.30","","","","","","Fog"
"-82.08","42.31","CHATHAM KENT","6131414","2021-07-20 04:00","2021","07","20","04:00","18.6","","18.3","","98","","0.0","","29","","5","","3.6","","99.29","","","","","","Fog"
"-82.08","42.31","CHATHAM KENT","6131414","2021-07-20 05:00","2021","07","20","05:00","18.0","","17.7","","98","","0.0","","25","","5","","4.0","","99.30","","","","","","Fog"
"-82.08","42.31","CHATHAM KENT","6131414","2021-07-20 06:00","2021","07","20","06:00","18.3","","18.1","","99","","0.0","","26","","4","","0.2","","99.32","","","","","","Fog"
"-82.08","42.31","CHATHAM KENT","6131414","2021-07-20 07:00","2021","07","20","07:00","20.9","","20.6","","98","","0.0","","26","","5","","4.0","","99.32","","29","","","","Fog"
"-82.08","42.31","CHATHAM KENT","6131414","2021-07-20 08:00","2021","07","20","08:00","22.9","","21.2","","90","","0.0","","30","","8","","6.4","","99.30","","31","","","","Fog"
"-82.08","42.31","CHATHAM KENT","6131414","2021-07-20 09:00","2021","07","20","09:00","23.8","","21.5","","87","","0.0","","30","","9","","9.7","","99.27","","33","","","","Haze"
"-82.08","42.31","CHATHAM KENT","6131414","2021-07-20 10:00","2021","07","20","10:00","24.8","","21.6","","82","","0.0","","31","","11","","12.9","","99.28","","34","","","","NA"
"-82.08","42.31","CHATHAM KENT","6131414","2021-07-20 11:00","2021","07","20","11:00","26.3","","20.6","","71","","0.0","","30","","11","","16.1","","99.24","","34","","","","NA"
"-82.08","42.31","CHATHAM KENT","6131414","2021-07-20 12:00","2021","07","20","12:00","26.5","","20.5","","69","","0.0","","30","","17","","16.1","","99.21","","34","","","","NA"
"-82.08","42.31","CHATHAM KENT","6131414","2021-07-20 13:00","2021","07","20","13:00","26.9","","18.7","","60","","0.0","","32","","15","","16.1","","99.15","","33","","","","NA"
"-82.08","42.31","CHATHAM KENT","6131414","2021-07-20 14:00","2021","07","20","14:00","27.4","","20.3","","65","","0.0","","31","","18","","16.1","","99.08","","35","","","","NA"
"-82.08","42.31","CHATHAM KENT","6131414","2021-07-20 15:00","2021","07","20","15:00","27.0","","18.2","","58","","0.0","","31","","18","","16.1","","99.03","","33","","","","NA"
"-82.08","42.31","CHATHAM KENT","6131414","2021-07-20 16:00","2021","07","20","16:00","27.1","","18.5","","59","","0.0","","31","","22","","16.1","","98.99","","33","","","","NA"
"-82.08","42.31","CHATHAM KENT","6131414","2021-07-20 17:00","2021","07","20","17:00","27.8","","17.9","","54","","0.0","","28","","18","","16.1","","98.98","","34","","","","NA"
"-82.08","42.31","CHATHAM KENT","6131414","2021-07-20 18:00","2021","07","20","18:00","26.4","","18.9","","63","","0.0","","27","","13","","16.1","","98.96","","33","","","","NA"
"-82.08","42.31","CHATHAM KENT","6131414","2021-07-20 19:00","2021","07","20","19:00","22.6","","17.7","","73","","0.0","","33","","9","","16.1","","99.04","","28","","","","NA"
"-82.08","42.31","CHATHAM KENT","6131414","2021-07-20 20:00","2021","07","20","20:00","20.5","","18.5","","88","","0.0","","34","","13","","16.1","","99.06","","27","","","","NA"
"-82.08","42.31","CHATHAM KENT","6131414","2021-07-20 21:00","2021","07","20","21:00","19.9","","18.4","","91","","0.0","","1","","22","","16.1","","99.13","","","","","","NA"
"-82.08","42.31","CHATHAM KENT","6131414","2021-07-20 22:00","2021","07","20","22:00","18.4","","16.8","","90","","0.0","","36","","24","","16.1","","99.18","","","","","","NA"
"-82.08","42.31","CHATHAM KENT","6131414","2021-07-20 23:00","2021","07","20","23:00","17.5","","16.2","","92","","0.0","","36","","15","","16.1","","99.20","","","","","","NA"
"-82.08","42.31","CHATHAM KENT","6131414","2021-07-21 00:00","2021","07","21","00:00","17.1","","15.8","","92","","0.0","","36","","21","","16.1","","99.19","","","","","","NA"
"-82.08","42.31","CHATHAM KENT","6131414","2021-07-21 01:00","2021","07","21","01:00","16.8","","15.7","","93","","0.0","","36","","18","","16.1","","99.20","","","","","","NA"
"-82.08","42.31","CHATHAM KENT","6131414","2021-07-21 02:00","2021","07","21","02:00","16.3","","15.2","","93","","0.0","","36","","15","","16.1","","99.20","","","","","","NA"
"-82.08","42.31","CHATHAM KENT","6131414","2021-07-21 03:00","2021","07","21","03:00","16.2","","14.6","","90","","0.0","","35","","15","","16.1","","99.21","","","","","","NA"
"-82.08","42.31","CHATHAM KENT","6131414","2021-07-21 04:00","2021","07","21","04:00","16.6","","14.8","","89","","0.0","","36","","15","","16.1","","99.24","","","","","","NA"
"-82.08","42.31","CHATHAM KENT","6131414","2021-07-21 05:00","2021","07","21","05:00","16.4","","14.4","","88","","0.0","","1","","17","","16.1","","99.28","","","","","","NA"
"-82.08","42.31","CHATHAM KENT","6131414","2021-07-21 06:00","2021","07","21","06:00","16.3","","14.5","","89","","0.0","","2","","13","","16.1","","99.34","","","","","","NA"
"-82.08","42.31","CHATHAM KENT","6131414","2021-07-21 07:00","2021","07","21","07:00","16.5","","14.0","","85","","0.0","","1","","15","","16.1","","99.40","","","","","","NA"
"-82.08","42.31","CHATHAM KENT","6131414","2021-07-21 08:00","2021","07","21","08:00","16.5","","13.9","","85","","0.0","","2","","15","","16.1","","99.45","","","","","","NA"
"-82.08","42.31","CHATHAM KENT","6131414","2021-07-21 09:00","2021","07","21","09:00","17.7","","13.6","","77","","0.0","","3","","21","","16.1","","99.51","","","","","","NA"
"-82.08","42.31","CHATHAM KENT","6131414","2021-07-21 10:00","2021","07","21","10:00","19.7","","13.7","","68","","0.0","","","M","","M","","M","99.55","","","","","","NA"
"-82.08","42.31","CHATHAM KENT","6131414","2021-07-21 11:00","2021","07","21","11:00","21.1","","14.2","","64","","0.0","","","M","","M","","M","99.58","","25","","","","NA"
"-82.08","42.31","CHATHAM KENT","6131414","2021-07-21 12:00","2021","07","21","12:00","22.3","","13.3","","56","","0.0","","","M","","M","","M","99.59","","25","","","","NA"
"-82.08","42.31","CHATHAM KENT","6131414","2021-07-21 13:00","2021","07","21","13:00","22.9","","12.5","","52","","0.0","","","M","","M","","M","99.57","","25","","","","NA"
"-82.08","42.31","CHATHAM KENT","6131414","2021-07-21 14:00","2021","07","21","14:00","23.4","","12.0","","48","","0.0","","","M","","M","","M","99.58","","26","","","","NA"
"-82.08","42.31","CHATHAM KENT","6131414","2021-07-21 15:00","2021","07","21","15:00","23.2","","12.0","","49","","0.0","","","M","","M","","M","99.57","","25","","","","NA"
"-82.08","42.31","CHATHAM KENT","6131414","2021-07-21 16:00","2021","07","21","16:00","22.5","","10.7","","47","","0.0","","35","","22","","16.1","","99.58","","","","","","NA"
"-82.08","42.31","CHATHAM KENT","6131414","2021-07-21 17:00","2021","07","21","17:00","21.9","","10.2","","47","","0.0","","36","","24","","16.1","","99.60","","","","","","NA"
"-82.08","42.31","CHATHAM KENT","6131414","2021-07-21 18:00","2021","07","21","18:00","20.9","","10.8","","52","","0.0","","36","","18","","16.1","","99.62","","","","","","NA"
"-82.08","42.31","CHATHAM KENT","6131414","2021-07-21 19:00","2021","07","21","19:00","19.1","","10.7","","58","","0.0","","1","","17","","16.1","","99.64","","","","","","NA"
"-82.08","42.31","CHATHAM KENT","6131414","2021-07-21 20:00","2021","07","21","20:00","15.8","","11.4","","75","","0.0","","36","","11","","16.1","","99.70","","","","","","NA"
"-82.08","42.31","CHATHAM KENT","6131414","2021-07-21 21:00","2021","07","21","21:00","14.9","","11.2","","78","","0.0","","35","","13","","16.1","","99.78","","","","","","NA"
"-82.08","42.31","CHATHAM KENT","6131414","2021-07-21 22:00","2021","07","21","22:00","13.9","","11.3","","84","","0.0","","36","","11","","16.1","","99.81","","","","","","NA"
"-82.08","42.31","CHATHAM KENT","6131414","2021-07-21 23:00","2021","07","21","23:00","13.6","","11.3","","86","","0.0","","36","","11","","16.1","","99.81","","","","","","NA"
"-82.08","42.31","CHATHAM KENT","6131414","2021-07-22 00:00","2021","07","22","00:00","13.0","","11.1","","88","","0.0","","36","","9","","16.1","","99.84","","","","","","NA"
"-82.08","42.31","CHATHAM KENT","6131414","2021-07-22 01:00","2021","07","22","01:00","11.4","","10.5","","94","","0.0","","","","0","","16.1","","99.84","","","","","","NA"
"-82.08","42.31","CHATHAM KENT","6131414","2021-07-22 02:00","2021","07","22","02:00","11.4","","10.5","","94","","0.0","","36","","8","","16.1","","99.83","","","","","","NA"
"-82.08","42.31","CHATHAM KENT","6131414","2021-07-22 03:00","2021","07","22","03:00","10.4","","9.5","","94","","0.0","","33","","9","","16.1","","99.87","","","","","","NA"
"-82.08","42.31","CHATHAM KENT","6131414","2021-07-22 04:00","2021","07","22","04:00","10.8","","10.2","","96","","0.0","","35","","5","","16.1","","99.88","","","","","","NA"
"-82.08","42.31","CHATHAM KENT","6131414","2021-07-22 05:00","2021","07","22","05:00","11.2","","10.8","","97","","0.0","","35","","4","","16.1","","99.93","","","","","","NA"
"-82.08","42.31","CHATHAM KENT","6131414","2021-07-22 06:00","2021","07","22","06:00","11.9","","11.3","","96","","0.0","","35","","5","","16.1","","99.97","","","","","","NA"
"-82.08","42.31","CHATHAM KENT","6131414","2021-07-22 07:00","2021","07","22","07:00","13.3","","12.2","","93","","0.0","","36","","8","","16.1","","100.01","","","","","","NA"
"-82.08","42.31","CHATHAM KENT","6131414","2021-07-22 08:00","2021","07","22","08:00","16.3","","13.4","","83","","0.0","","36","","8","","16.1","","100.03","","","","","","NA"
"-82.08","42.31","CHATHAM KENT","6131414","2021-07-22 09:00","2021","07","22","09:00","19.0","","12.2","","64","","0.0","","1","","11","","16.1","","100.05","","","","","","NA"
"-82.08","42.31","CHATHAM KENT","6131414","2021-07-22 10:00","2021","07","22","10:00","20.3","","10.8","","54","","0.0","","3","","11","","16.1","","100.03","","","","","","NA"
"-82.08","42.31","CHATHAM KENT","6131414","2021-07-22 11:00","2021","07","22","11:00","21.5","","11.3","","52","","0.0","","3","","9","","16.1","","100.04","","","","","","NA"
"-82.08","42.31","CHATHAM KENT","6131414","2021-07-22 12:00","2021","07","22","12:00","22.4","","12.1","","52","","0.0","","7","","11","","16.1","","100.02","","25","","","","NA"
"-82.08","42.31","CHATHAM KENT","6131414","2021-07-22 13:00","2021","07","22","13:00","23.0","","12.5","","51","","0.0","","5","","8","","16.1","","99.97","","26","","","","NA"
"-82.08","42.31","CHATHAM KENT","6131414","2021-07-22 14:00","2021","07","22","14:00","22.1","","12.4","","54","","0.0","","17","","11","","16.1","","99.96","","25","","","","NA"
"-82.08","42.31","CHATHAM KENT","6131414","2021-07-22 15:00","2021","07","22","15:00","21.8","","12.4","","55","","0.0","","20","","13","","16.1","","99.94","","","","","","NA"
"-82.08","42.31","CHATHAM KENT","6131414","2021-07-22 16:00","2021","07","22","16:00","21.1","","12.6","","58","","0.0","","19","","15","","16.1","","99.93","","","","","","NA"
"-82.08","42.31","CHATHAM KENT","6131414","2021-07-22 17:00","2021","07","22","17:00","20.4","","13.2","","63","","0.0","","20","","9","","16.1","","99.92","","","","","","NA"
"-82.08","42.31","CHATHAM KENT","6131414","2021-07-22 18:00","2021","07","22","18:00","19.8","","14.2","","70","","0.0","","23","","8","","16.1","","99.93","","","","","","NA"
"-82.08","42.31","CHATHAM KENT","6131414","2021-07-22 19:00","2021","07","22","19:00","19.2","","15.0","","76","","0.0","","27","","5","","16.1","","99.93","","","","","","NA"
"-82.08","42.31","CHATHAM KENT","6131414","2021-07-22 20:00","2021","07","22","20:00","18.4","","14.3","","77","","0.0","","30","","4","","16.1","","99.94","","","","","","NA"
"-82.08","42.31","CHATHAM KENT","6131414","2021-07-22 21:00","2021","07","22","21:00","16.9","","15.7","","93","","0.0","","18","","5","","16.1","","99.91","","","","","","NA"
"-82.08","42.31","CHATHAM KENT","6131414","2021-07-22 22:00","2021","07","22","22:00","16.9","","15.0","","88","","0.0","","28","","5","","16.1","","99.93","","","","","","NA"
"-82.08","42.31","CHATHAM KENT","6131414","2021-07-22 23:00","2021","07","22","23:00","16.3","","15.2","","93","","0.0","","","","0","","16.1","","99.93","","","","","","NA"
"-82.08","42.31","CHATHAM KENT","6131414","2021-07-23 00:00","2021","07","23","00:00","16.0","","14.7","","92","","0.0","","16","","5","","16.1","","99.91","","","","","","NA"
"-82.08","42.31","CHATHAM KENT","6131414","2021-07-23 01:00","2021","07","23","01:00","16.1","","14.8","","92","","0.0","","5","","4","","16.1","","99.91","","","","","","NA"
"-82.08","42.31","CHATHAM KENT","6131414","2021-07-23 02:00","2021","07","23","02:00","15.3","","14.5","","95","","0.0","","33","","4","","16.1","","99.90","","","","","","NA"
"-82.08","42.31","CHATHAM KENT","6131414","2021-07-23 03:00","2021","07","23","03:00","15.4","","14.6","","95","","0.0","","8","","4","","16.1","","99.89","","","","","","NA"
"-82.08","42.31","CHATHAM KENT","6131414","2021-07-23 04:00","2021","07","23","04:00","15.2","","14.6","","96","","0.0","","9","","4","","16.1","","99.88","","","","","","NA"
"-82.08","42.31","CHATHAM KENT","6131414","2021-07-23 05:00","2021","07","23","05:00","14.4","","13.6","","95","","0.0","","12","","4","","16.1","","99.89","","","","","","NA"
"-82.08","42.31","CHATHAM KENT","6131414","2021-07-23 06:00","2021","07","23","06:00","16.0","","14.7","","92","","0.0","","","M","4","","16.1","","99.93","","","","","","NA"
"-82.08","42.31","CHATHAM KENT","6131414","2021-07-23 07:00","2021","07","23","07:00","18.8","","16.8","","88","","0.0","","13","","5","","16.1","","99.95","","","","","","NA"
"-82.08","42.31","CHATHAM KENT","6131414","2021-07-23 08:00","2021","07","23","08:00","21.3","","16.7","","75","","0.0","","18","","15","","16.1","","99.94","","26","","","","NA"
"-82.08","42.31","CHATHAM KENT","6131414","2021-07-23 09:00","2021","07","23","09:00","22.0","","16.8","","72","","0.0","","16","","15","","16.1","","99.92","","27","","","","NA"
"-82.08","42.31","CHATHAM KENT","6131414","2021-07-23 10:00","2021","07","23","10:00","22.8","","16.2","","66","","0.0","","17","","15","","16.1","","99.92","","28","","","","NA"
"-82.08","42.31","CHATHAM KENT","6131414","2021-07-23 11:00","2021","07","23","11:00","22.0","","15.9","","68","","0.0","","21","","13","","16.1","","99.93","","27","","","","NA"
"-82.08","42.31","CHATHAM KENT","6131414","2021-07-23 12:00","2021","07","23","12:00","22.6","","15.0","","62","","0.0","","20","","9","","16.1","","99.92","","27","","","","NA"
"-82.08","42.31","CHATHAM KENT","6131414","2021-07-23 13:00","2021","07","23","13:00","23.3","","14.8","","58","","0.0","","17","","15","","16.1","","99.86","","27","","","","NA"
"-82.08","42.31","CHATHAM KENT","6131414","2021-07-23 14:00","2021","07","23","14:00","22.9","","14.0","","57","","0.0","","18","","15","","16.1","","99.81","","26","","","","NA"
"-82.08","42.31","CHATHAM KENT","6131414","2021-07-23 15:00","2021","07","23","15:00","23.3","","13.7","","54","","0.0","","18","","15","","16.1","","99.76","","26","","","","NA"
"-82.08","42.31","CHATHAM KENT","6131414","2021-07-23 16:00","2021","07","23","16:00","23.1","","13.1","","53","","0.0","","20","","9","","16.1","","99.71","","26","","","","NA"
"-82.08","42.31","CHATHAM KENT","6131414","2021-07-23 17:00","2021","07","23","17:00","22.2","","11.8","","51","","0.0","","19","","9","","16.1","","99.70","","","","","","NA"
"-82.08","42.31","CHATHAM KENT","6131414","2021-07-23 18:00","2021","07","23","18:00","21.7","","11.7","","53","","0.0","","17","","9","","16.1","","99.64","","","","","","NA"
"-82.08","42.31","CHATHAM KENT","6131414","2021-07-23 19:00","2021","07","23","19:00","20.9","","13.7","","63","","0.0","","16","","5","","16.1","","99.63","","","","","","NA"
"-82.08","42.31","CHATHAM KENT","6131414","2021-07-23 20:00","2021","07","23","20:00","19.6","","14.7","","73","","0.0","","14","","8","","16.1","","99.58","","","","","","NA"
"-82.08","42.31","CHATHAM KENT","6131414","2021-07-23 21:00","2021","07","23","21:00","19.4","","16.0","","80","","0.0","","15","","11","","16.1","","99.58","","","","","","NA"
"-82.08","42.31","CHATHAM KENT","6131414","2021-07-23 22:00","2021","07","23","22:00","20.2","","16.5","","79","","0.0","","12","","8","","16.1","","99.61","","25","","","","NA"
"-82.08","42.31","CHATHAM KENT","6131414","2021-07-23 23:00","2021","07","23","23:00","20.4","","17.3","","82","","0.0","","15","","13","","16.1","","99.56","","26","","","","NA"
"-82.08","42.31","CHATHAM KENT","6131414","2021-07-24 00:00","2021","07","24","00:00","20.6","","17.8","","84","","0.2","","16","","11","","11.3","","99.54","","26","","","","Rain"
"-82.08","42.31","CHATHAM KENT","6131414","2021-07-24 01:00","2021","07","24","01:00","19.4","","17.9","","91","","1.5","","12","","13","","16.1","","99.46","","","","","","Rain"
"-82.08","42.31","CHATHAM KENT","6131414","2021-07-24 02:00","2021","07","24","02:00","19.4","","17.6","","89","","0.0","","15","","11","","16.1","","99.42","","","","","","NA"
"-82.08","42.31","CHATHAM KENT","6131414","2021-07-24 03:00","2021","07","24","03:00","18.4","","17.1","","92","","0.0","","15","","13","","16.1","","99.38","","","","","","NA"
"-82.08","42.31","CHATHAM KENT","6131414","2021-07-24 04:00","2021","07","24","04:00","19.8","","18.6","","93","","0.0","","17","","11","","16.1","","99.34","","","","","","NA"
"-82.08","42.31","CHATHAM KENT","6131414","2021-07-24 05:00","2021","07","24","05:00","20.0","","19.2","","95","","0.0","","19","","13","","16.1","","99.30","","27","","","","NA"
"-82.08","42.31","CHATHAM KENT","6131414","2021-07-24 06:00","2021","07","24","06:00","20.4","","19.3","","93","","0.0","","19","","13","","16.1","","99.27","","27","","","","NA"
"-82.08","42.31","CHATHAM KENT","6131414","2021-07-24 07:00","2021","07","24","07:00","21.6","","19.4","","87","","0.0","","20","","21","","16.1","","99.23","","29","","","","NA"
"-82.08","42.31","CHATHAM KENT","6131414","2021-07-24 08:00","2021","07","24","08:00","22.4","","19.6","","84","","0.0","","22","","24","","16.1","","99.22","","30","","","","NA"
"-82.08","42.31","CHATHAM KENT","6131414","2021-07-24 09:00","2021","07","24","09:00","21.7","","19.3","","86","","0.0","","20","","21","","16.1","","99.22","","29","","","","NA"
"-82.08","42.31","CHATHAM KENT","6131414","2021-07-24 10:00","2021","07","24","10:00","22.0","","19.6","","86","","0.0","","22","","24","","16.1","","99.21","","29","","","","NA"
"-82.08","42.31","CHATHAM KENT","6131414","2021-07-24 11:00","2021","07","24","11:00","21.5","","20.7","","95","","2.2","","21","","18","","14.5","","99.17","","30","","","","NA"
"-82.08","42.31","CHATHAM KENT","6131414","2021-07-24 12:00","2021","07","24","12:00","23.0","","20.7","","86","","0.0","","21","","28","","16.1","","99.11","","31","","","","NA"
"-82.08","42.31","CHATHAM KENT","6131414","2021-07-24 13:00","2021","07","24","13:00","24.6","","21.6","","83","","0.0","","20","","24","","16.1","","99.01","","34","","","","NA"
"-82.08","42.31","CHATHAM KENT","6131414","2021-07-24 14:00","2021","07","24","14:00","25.1","","22.0","","82","","0.0","","21","","28","","16.1","","98.94","","34","","","","NA"
"-82.08","42.31","CHATHAM KENT","6131414","2021-07-24 15:00","2021","07","24","15:00","25.0","","22.2","","84","","0.0","","21","","22","","16.1","","98.85","","35","","","","NA"
"-82.08","42.31","CHATHAM KENT","6131414","2021-07-24 16:00","2021","07","24","16:00","25.2","","22.2","","83","","0.0","","21","","22","","14.5","","98.75","","35","","","","NA"
"-82.08","42.31","CHATHAM KENT","6131414","2021-07-24 17:00","2021","07","24","17:00","25.6","","22.1","","81","","0.0","","22","","26","","14.5","","98.73","","35","","","","NA"
"-82.08","42.31","CHATHAM KENT","6131414","2021-07-24 18:00","2021","07","24","18:00","25.1","","21.7","","81","","0.0","","22","","24","","14.5","","98.71","","34","","","","NA"
"-82.08","42.31","CHATHAM KENT","6131414","2021-07-24 19:00","2021","07","24","19:00","24.7","","21.3","","81","","0.0","","21","","32","","16.1","","98.59","","33","","","","NA"
"-82.08","42.31","CHATHAM KENT","6131414","2021-07-24 20:00","2021","07","24","20:00","24.5","","21.3","","82","","0.0","","22","","28","","16.1","","98.63","","33","","","","NA"
"-82.08","42.31","CHATHAM KENT","6131414","2021-07-24 21:00","2021","07","24","21:00","24.1","","21.1","","83","","0.0","","24","","26","","16.1","","98.57","","33","","","","NA"
"-82.08","42.31","CHATHAM KENT","6131414","2021-07-24 22:00","2021","07","24","22:00","23.4","","21.5","","89","","0.0","","24","","13","","16.1","","98.57","","32","","","","NA"
"-82.08","42.31","CHATHAM KENT","6131414","2021-07-24 23:00","2021","07","24","23:00","21.4","","20.6","","95","","0.0","","26","","17","","16.1","","98.63","","29","","","","NA"
"-82.08","42.31","CHATHAM KENT","6131414","2021-07-25 00:00","2021","07","25","00:00","20.7","","20.4","","98","","0.0","","26","","11","","16.1","","98.66","","29","","","","NA"
"-82.08","42.31","CHATHAM KENT","6131414","2021-07-25 01:00","2021","07","25","01:00","20.7","","20.4","","98","","0.0","","26","","8","","12.9","","98.67","","29","","","","NA"
"-82.08","42.31","CHATHAM KENT","6131414","2021-07-25 02:00","2021","07","25","02:00","19.9","","19.7","","99","","0.0","","29","","9","","9.7","","98.68","","","","","","Fog"
"-82.08","42.31","CHATHAM KENT","6131414","2021-07-25 03:00","2021","07","25","03:00","19.4","","19.4","","100","","0.0","","31","","8","","0.6","","98.70","","","","","","Fog"
"-82.08","42.31","CHATHAM KENT","6131414","2021-07-25 04:00","2021","07","25","04:00","19.6","","19.6","","100","","0.0","","21","","4","","0.4","","98.74","","","","","","Fog"
"-82.08","42.31","CHATHAM KENT","6131414","2021-07-25 05:00","2021","07","25","05:00","21.3","","21.3","","100","","0.0","","28","","8","","0.6","","98.79","","30","","","","Fog"
"-82.08","42.31","CHATHAM KENT","6131414","2021-07-25 06:00","2021","07","25","06:00","21.3","","21.3","","100","","0.0","","26","","4","","3.2","","98.87","","30","","","","Fog"
"-82.08","42.31","CHATHAM KENT","6131414","2021-07-25 07:00","2021","07","25","07:00","21.5","","21.5","","100","","0.0","","29","","8","","6.4","","98.91","","30","","","","Fog"
"-82.08","42.31","CHATHAM KENT","6131414","2021-07-25 08:00","2021","07","25","08:00","22.6","","21.4","","93","","0.0","","27","","5","","14.5","","98.91","","31","","","","NA"
"-82.08","42.31","CHATHAM KENT","6131414","2021-07-25 09:00","2021","07","25","09:00","24.5","","22.1","","86","","0.0","","30","","9","","16.1","","98.92","","34","","","","NA"
"-82.08","42.31","CHATHAM KENT","6131414","2021-07-25 10:00","2021","07","25","10:00","26.3","","21.7","","75","","0.0","","25","","8","","16.1","","98.92","","35","","","","NA"
"-82.08","42.31","CHATHAM KENT","6131414","2021-07-25 11:00","2021","07","25","11:00","27.0","","21.5","","72","","0.0","","24","","8","","16.1","","98.95","","36","","","","NA"
"-82.08","42.31","CHATHAM KENT","6131414","2021-07-25 12:00","2021","07","25","12:00","25.2","","22.9","","87","","0.0","","21","","13","","16.1","","98.94","","35","","","","NA"
"-82.08","42.31","CHATHAM KENT","6131414","2021-07-25 13:00","2021","07","25","13:00","25.5","","23.0","","86","","0.0","","22","","15","","16.1","","98.93","","36","","","","NA"
"-82.08","42.31","CHATHAM KENT","6131414","2021-07-25 14:00","2021","07","25","14:00","28.7","","16.9","","48","","0.0","","32","","13","","16.1","","98.92","","34","","","","NA"
"-82.08","42.31","CHATHAM KENT","6131414","2021-07-25 15:00","2021","07","25","15:00","28.8","","17.3","","49","","0.0","","30","","15","","16.1","","98.91","","34","","","","NA"
"-82.08","42.31","CHATHAM KENT","6131414","2021-07-25 16:00","2021","07","25","16:00","29.0","","16.6","","46","","0.0","","30","","17","","16.1","","98.90","","34","","","","NA"
"-82.08","42.31","CHATHAM KENT","6131414","2021-07-25 17:00","2021","07","25","17:00","28.9","","14.8","","42","","0.0","","29","","15","","16.1","","98.88","","33","","","","NA"
"-82.08","42.31","CHATHAM KENT","6131414","2021-07-25 18:00","2021","07","25","18:00","28.4","","16.2","","47","","0.0","","27","","8","","16.1","","98.85","","33","","","","NA"
"-82.08","42.31","CHATHAM KENT","6131414","2021-07-25 19:00","2021","07","25","19:00","24.3","","21.2","","82","","0.0","","21","","11","","16.1","","98.87","","33","","","","NA"
"-82.08","42.31","CHATHAM KENT","6131414","2021-07-25 20:00","2021","07","25","20:00","21.8","","19.8","","88","","0.0","","22","","9","","16.1","","98.90","","29","","","","NA"
"-82.08","42.31","CHATHAM KENT","6131414","2021-07-25 21:00","2021","07","25","21:00","20.5","","19.1","","92","","0.0","","","","0","","16.1","","98.96","","27","","","","NA"
"-82.08","42.31","CHATHAM KENT","6131414","2021-07-25 22:00","2021","07","25","22:00","19.7","","18.7","","94","","0.0","","22","","5","","16.1","","98.98","","","","","","NA"
"-82.08","42.31","CHATHAM KENT","6131414","2021-07-25 23:00","2021","07","25","23:00","19.4","","18.3","","93","","0.0","","24","","5","","16.1","","98.98","","","","","","NA"
"-82.08","42.31","CHATHAM KENT","6131414","2021-07-26 00:00","2021","07","26","00:00","18.5","","17.4","","93","","0.0","","26","","4","","16.1","","99.01","","","","","","NA"
"-82.08","42.31","CHATHAM KENT","6131414","2021-07-26 01:00","2021","07","26","01:00","18.4","","16.4","","88","","0.0","","24","","5","","16.1","","99.00","","","","","","NA"
"-82.08","42.31","CHATHAM KENT","6131414","2021-07-26 02:00","2021","07","26","02:00","17.7","","15.7","","88","","0.0","","28","","4","","16.1","","99.01","","","","","","NA"
"-82.08","42.31","CHATHAM KENT","6131414","2021-07-26 03:00","2021","07","26","03:00","16.6","","15.5","","93","","0.0","","","","0","","16.1","","99.01","","","","","","NA"
"-82.08","42.31","CHATHAM KENT","6131414","2021-07-26 04:00","2021","07","26","04:00","16.4","","15.0","","91","","0.0","","","","0","","16.1","","99.02","","","","","","NA"
"-82.08","42.31","CHATHAM KENT","6131414","2021-07-26 05:00","2021","07","26","05:00","17.2","","15.7","","91","","0.0","","28","","8","","16.1","","99.05","","","","","","NA"
"-82.08","42.31","CHATHAM KENT","6131414","2021-07-26 06:00","2021","07","26","06:00","16.3","","15.5","","95","","0.0","","29","","8","","16.1","","99.07","","","","","","NA"
"-82.08","42.31","CHATHAM KENT","6131414","2021-07-26 07:00","2021","07","26","07:00","19.7","","17.9","","89","","0.0","","31","","9","","16.1","","99.12","","","","","","NA"
"-82.08","42.31","CHATHAM KENT","6131414","2021-07-26 08:00","2021","07","26","08:00","22.4","","18.3","","77","","0.0","","33","","13","","16.1","","99.17","","29","","","","NA"
"-82.08","42.31","CHATHAM KENT","6131414","2021-07-26 09:00","2021","07","26","09:00","24.9","","17.9","","65","","0.0","","32","","9","","16.1","","99.19","","31","","","","NA"
"-82.08","42.31","CHATHAM KENT","6131414","2021-07-26 10:00","2021","07","26","10:00","26.7","","16.5","","53","","0.0","","33","","13","","16.1","","99.18","","32","","","","NA"
"-82.08","42.31","CHATHAM KENT","6131414","2021-07-26 11:00","2021","07","26","11:00","27.8","","15.7","","47","","0.0","","33","","15","","16.1","","99.19","","32","","","","NA"
"-82.08","42.31","CHATHAM KENT","6131414","2021-07-26 12:00","2021","07","26","12:00","28.4","","16.9","","49","","0.0","","29","","15","","16.1","","99.19","","34","","","","NA"
"-82.08","42.31","CHATHAM KENT","6131414","2021-07-26 13:00","2021","07","26","13:00","28.7","","17.7","","51","","0.0","","30","","17","","16.1","","99.16","","34","","","","NA"
"-82.08","42.31","CHATHAM KENT","6131414","2021-07-26 14:00","2021","07","26","14:00","29.3","","16.2","","45","","0.0","","31","","18","","16.1","","99.17","","34","","","","NA"
"-82.08","42.31","CHATHAM KENT","6131414","2021-07-26 15:00","2021","07","26","15:00","29.5","","16.0","","43","","0.0","","30","","17","","16.1","","99.17","","34","","","","NA"
"-82.08","42.31","CHATHAM KENT","6131414","2021-07-26 16:00","2021","07","26","16:00","30.0","","13.8","","36","","0.0","","35","","11","","16.1","","99.17","","33","","","","NA"
"-82.08","42.31","CHATHAM KENT","6131414","2021-07-26 17:00","2021","07","26","17:00","29.6","","13.8","","38","","0.0","","34","","13","","16.1","","99.14","","33","","","","NA"
"-82.08","42.31","CHATHAM KENT","6131414","2021-07-26 18:00","2021","07","26","18:00","28.8","","14.7","","42","","0.0","","35","","8","","16.1","","99.11","","33","","","","NA"
"-82.08","42.31","CHATHAM KENT","6131414","2021-07-26 19:00","2021","07","26","19:00","26.5","","17.8","","58","","0.0","","31","","5","","16.1","","99.14","","32","","","","NA"
"-82.08","42.31","CHATHAM KENT","6131414","2021-07-26 20:00","2021","07","26","20:00","24.1","","17.3","","65","","0.0","","28","","5","","16.1","","99.16","","30","","","","NA"
"-82.08","42.31","CHATHAM KENT","6131414","2021-07-26 21:00","2021","07","26","21:00","20.2","","18.3","","89","","0.0","","21","","9","","16.1","","99.20","","26","","","","NA"
"-82.08","42.31","CHATHAM KENT","6131414","2021-07-26 22:00","2021","07","26","22:00","19.5","","17.0","","85","","0.0","","24","","11","","16.1","","99.22","","","","","","NA"
"-82.08","42.31","CHATHAM KENT","6131414","2021-07-26 23:00","2021","07","26","23:00","18.6","","16.8","","89","","0.0","","22","","8","","16.1","","99.24","","","","","","NA"
"-82.08","42.31","CHATHAM KENT","6131414","2021-07-27 00:00","2021","07","27","00:00","18.8","","16.3","","85","","0.0","","24","","11","","16.1","","99.23","","","","","","NA"
"-82.08","42.31","CHATHAM KENT","6131414","2021-07-27 01:00","2021","07","27","01:00","18.8","","15.5","","81","","0.0","","25","","9","","16.1","","99.21","","","","","","NA"
"-82.08","42.31","CHATHAM KENT","6131414","2021-07-27 02:00","2021","07","27","02:00","18.6","","15.1","","80","","0.0","","27","","8","","16.1","","99.21","","","","","","NA"
"-82.08","42.31","CHATHAM KENT","6131414","2021-07-27 03:00","2021","07","27","03:00","17.2","","15.4","","89","","0.0","","26","","8","","16.1","","99.22","","","","","","NA"
"-82.08","42.31","CHATHAM KENT","6131414","2021-07-27 04:00","2021","07","27","04:00","17.1","","15.6","","91","","0.0","","25","","8","","16.1","","99.19","","","","","","NA"
"-82.08","42.31","CHATHAM KENT","6131414","2021-07-27 05:00","2021","07","27","05:00","17.7","","15.4","","86","","0.0","","26","","5","","16.1","","99.21","","","","","","NA"
"-82.08","42.31","CHATHAM KENT","6131414","2021-07-27 06:00","2021","07","27","06:00","17.0","","15.6","","91","","0.0","","23","","13","","16.1","","99.24","","","","","","NA"
"-82.08","42.31","CHATHAM KENT","6131414","2021-07-27 07:00","2021","07","27","07:00","20.1","","17.5","","85","","0.0","","24","","9","","16.1","","99.27","","26","","","","NA"
"-82.08","42.31","CHATHAM KENT","6131414","2021-07-27 08:00","2021","07","27","08:00","24.2","","17.3","","65","","0.0","","26","","9","","16.1","","99.23","","30","","","","NA"
"-82.08","42.31","CHATHAM KENT","6131414","2021-07-27 09:00","2021","07","27","09:00","25.2","","17.7","","63","","0.0","","27","","18","","16.1","","99.24","","31","","","","NA"
"-82.08","42.31","CHATHAM KENT","6131414","2021-07-27 10:00","2021","07","27","10:00","25.9","","18.9","","65","","0.0","","31","","13","","16.1","","99.24","","33","","","","NA"
"-82.08","42.31","CHATHAM KENT","6131414","2021-07-27 11:00","2021","07","27","11:00","25.5","","18.9","","66","","0.0","","29","","13","","16.1","","99.24","","32","","","","NA"
"-82.08","42.31","CHATHAM KENT","6131414","2021-07-27 12:00","2021","07","27","12:00","26.9","","18.3","","59","","0.0","","30","","24","","16.1","","99.27","","33","","","","NA"
"-82.08","42.31","CHATHAM KENT","6131414","2021-07-27 13:00","2021","07","27","13:00","26.8","","18.5","","60","","0.0","","30","","21","","16.1","","99.29","","33","","","","NA"
"-82.08","42.31","CHATHAM KENT","6131414","2021-07-27 14:00","2021","07","27","14:00","26.6","","19.0","","63","","0.0","","30","","18","","16.1","","99.28","","33","","","","NA"
"-82.08","42.31","CHATHAM KENT","6131414","2021-07-27 15:00","2021","07","27","15:00","26.1","","18.1","","61","","0.0","","30","","18","","16.1","","99.25","","32","","","","NA"
"-82.08","42.31","CHATHAM KENT","6131414","2021-07-27 16:00","2021","07","27","16:00","26.7","","17.9","","58","","0.0","","31","","17","","16.1","","99.25","","33","","","","NA"
"-82.08","42.31","CHATHAM KENT","6131414","2021-07-27 17:00","2021","07","27","17:00","27.1","","16.9","","53","","0.0","","29","","17","","16.1","","99.23","","32","","","","NA"
"-82.08","42.31","CHATHAM KENT","6131414","2021-07-27 18:00","2021","07","27","18:00","26.2","","17.0","","57","","0.0","","30","","15","","16.1","","99.23","","31","","","","NA"
"-82.08","42.31","CHATHAM KENT","6131414","2021-07-27 19:00","2021","07","27","19:00","24.4","","18.1","","67","","0.0","","31","","9","","16.1","","99.20","","30","","","","NA"
"-82.08","42.31","CHATHAM KENT","6131414","2021-07-27 20:00","2021","07","27","20:00","22.3","","17.9","","76","","0.0","","28","","5","","16.1","","99.24","","28","","","","NA"
"-82.08","42.31","CHATHAM KENT","6131414","2021-07-27 21:00","2021","07","27","21:00","20.2","","18.0","","87","","0.0","","","","0","","16.1","","99.25","","26","","","","NA"
"-82.08","42.31","CHATHAM KENT","6131414","2021-07-27 22:00","2021","07","27","22:00","19.4","","17.7","","90","","0.0","","","M","4","","16.1","","99.29","","","","","","NA"
"-82.08","42.31","CHATHAM KENT","6131414","2021-07-27 23:00","2021","07","27","23:00","18.8","","17.5","","92","","0.0","","6","","4","","16.1","","99.28","","","","","","NA"
"-82.08","42.31","CHATHAM KENT","6131414","2021-07-28 00:00","2021","07","28","00:00","20.0","","17.5","","85","","0.0","","4","","5","","16.1","","99.29","","26","","","","NA"
"-82.08","42.31","CHATHAM KENT","6131414","2021-07-28 01:00","2021","07","28","01:00","18.7","","17.6","","93","","0.0","","17","","4","","16.1","","99.29","","","","","","NA"
"-82.08","42.31","CHATHAM KENT","6131414","2021-07-28 02:00","2021","07","28","02:00","18.4","","17.1","","92","","0.0","","","M","4","","16.1","","99.28","","","","","","NA"
"-82.08","42.31","CHATHAM KENT","6131414","2021-07-28 03:00","2021","07","28","03:00","18.6","","17.8","","95","","0.0","","8","","9","","16.1","","99.31","","","","","","NA"
"-82.08","42.31","CHATHAM KENT","6131414","2021-07-28 04:00","2021","07","28","04:00","18.4","","17.8","","96","","0.0","","7","","8","","16.1","","99.30","","","","","","NA"
"-82.08","42.31","CHATHAM KENT","6131414","2021-07-28 05:00","2021","07","28","05:00","18.2","","17.6","","96","","0.0","","13","","8","","16.1","","99.29","","","","","","NA"
"-82.08","42.31","CHATHAM KENT","6131414","2021-07-28 06:00","2021","07","28","06:00","18.9","","18.0","","95","","0.0","","5","","9","","16.1","","99.35","","","","","","NA"
"-82.08","42.31","CHATHAM KENT","6131414","2021-07-28 07:00","2021","07","28","07:00","21.5","","19.6","","89","","0.0","","9","","8","","16.1","","99.41","","29","","","","NA"
"-82.08","42.31","CHATHAM KENT","6131414","2021-07-28 08:00","2021","07","28","08:00","22.1","","20.8","","92","","0.0","","12","","13","","16.1","","99.45","","30","","","","NA"
"-82.08","42.31","CHATHAM KENT","6131414","2021-07-28 09:00","2021","07","28","09:00","23.8","","20.8","","83","","0.0","","11","","13","","16.1","","99.39","","32","","","","NA"
"-82.08","42.31","CHATHAM KENT","6131414","2021-07-28 10:00","2021","07","28","10:00","24.9","","20.7","","77","","0.0","","13","","9","","16.1","","99.38","","33","","","","NA"
"-82.08","42.31","CHATHAM KENT","6131414","2021-07-28 11:00","2021","07","28","11:00","25.1","","20.1","","74","","0.0","","11","","11","","16.1","","99.42","","33","","","","NA"
"-82.08","42.31","CHATHAM KENT","6131414","2021-07-28 12:00","2021","07","28","12:00","25.1","","20.7","","76","","0.0","","13","","15","","16.1","","99.41","","33","","","","NA"
"-82.08","42.31","CHATHAM KENT","6131414","2021-07-28 13:00","2021","07","28","13:00","25.2","","20.8","","76","","0.0","","9","","13","","16.1","","99.36","","33","","","","NA"
"-82.08","42.31","CHATHAM KENT","6131414","2021-07-28 14:00","2021","07","28","14:00","25.1","","21.4","","80","","0.0","","12","","15","","16.1","","99.34","","34","","","","NA"
"-82.08","42.31","CHATHAM KENT","6131414","2021-07-28 15:00","2021","07","28","15:00","24.2","","20.5","","80","","0.0","","11","","15","","16.1","","99.30","","32","","","","NA"
"-82.08","42.31","CHATHAM KENT","6131414","2021-07-28 16:00","2021","07","28","16:00","24.5","","20.9","","80","","0.0","","15","","21","","16.1","","99.30","","33","","","","NA"
"-82.08","42.31","CHATHAM KENT","6131414","2021-07-28 17:00","2021","07","28","17:00","23.3","","19.6","","79","","0.0","","14","","17","","16.1","","99.31","","31","","","","NA"
"-82.08","42.31","CHATHAM KENT","6131414","2021-07-28 18:00","2021","07","28","18:00","23.6","","19.1","","76","","0.0","","14","","13","","16.1","","99.30","","30","","","","NA"
"-82.08","42.31","CHATHAM KENT","6131414","2021-07-28 19:00","2021","07","28","19:00","22.4","","19.8","","85","","0.0","","14","","11","","16.1","","99.28","","30","","","","NA"
"-82.08","42.31","CHATHAM KENT","6131414","2021-07-28 20:00","2021","07","28","20:00","20.4","","19.0","","91","","0.0","","13","","9","","16.1","","99.26","","27","","","","NA"
"-82.08","42.31","CHATHAM KENT","6131414","2021-07-28 21:00","2021","07","28","21:00","20.0","","18.7","","92","","0.0","","14","","9","","16.1","","99.24","","27","","","","NA"
"-82.08","42.31","CHATHAM KENT","6131414","2021-07-28 22:00","2021","07","28","22:00","19.7","","18.4","","92","","0.0","","13","","8","","16.1","","99.21","","","","","","NA"
"-82.08","42.31","CHATHAM KENT","6131414","2021-07-28 23:00","2021","07","28","23:00","19.6","","18.4","","93","","0.0","","14","","11","","16.1","","99.15","","","","","","NA"
"-82.08","42.31","CHATHAM KENT","6131414","2021-07-29 00:00","2021","07","29","00:00","20.1","","18.6","","91","","0.0","","17","","5","","16.1","","99.17","","27","","","","NA"
"-82.08","42.31","CHATHAM KENT","6131414","2021-07-29 01:00","2021","07","29","01:00","20.0","","19.1","","95","","0.0","","18","","11","","16.1","","99.06","","27","","","","NA"
"-82.08","42.31","CHATHAM KENT","6131414","2021-07-29 02:00","2021","07","29","02:00","21.4","","20.1","","92","","0.0","","18","","11","","16.1","","98.98","","29","","","","NA"
"-82.08","42.31","CHATHAM KENT","6131414","2021-07-29 03:00","2021","07","29","03:00","22.3","","20.4","","89","","0.0","","19","","13","","16.1","","98.92","","30","","","","NA"
"-82.08","42.31","CHATHAM KENT","6131414","2021-07-29 04:00","2021","07","29","04:00","22.8","","21.3","","91","","0.0","","20","","15","","16.1","","98.86","","31","","","","NA"
"-82.08","42.31","CHATHAM KENT","6131414","2021-07-29 05:00","2021","07","29","05:00","23.3","","22.0","","92","","0.0","","21","","18","","16.1","","98.63","","33","","","","NA"
"-82.08","42.31","CHATHAM KENT","6131414","2021-07-29 06:00","2021","07","29","06:00","23.5","","22.7","","95","","0.0","","23","","15","","12.9","","98.65","","33","","","","NA"
"-82.08","42.31","CHATHAM KENT","6131414","2021-07-29 07:00","2021","07","29","07:00","24.0","","22.7","","92","","0.0","","24","","18","","16.1","","98.63","","34","","","","NA"
"-82.08","42.31","CHATHAM KENT","6131414","2021-07-29 08:00","2021","07","29","08:00","24.0","","21.2","","84","","0.0","","26","","26","","16.1","","98.62","","33","","","","Thunderstorms"
"-82.08","42.31","CHATHAM KENT","6131414","2021-07-29 09:00","2021","07","29","09:00","22.6","","20.9","","90","","0.2","","30","","28","","14.5","","98.63","","31","","","","Rain"
"-82.08","42.31","CHATHAM KENT","6131414","2021-07-29 10:00","2021","07","29","10:00","25.5","","22.2","","82","","0.0","","28","","21","","16.1","","98.60","","35","","","","NA"
"-82.08","42.31","CHATHAM KENT","6131414","2021-07-29 11:00","2021","07","29","11:00","26.6","","21.6","","74","","0.0","","30","","21","","16.1","","98.63","","36","","","","NA"
"-82.08","42.31","CHATHAM KENT","6131414","2021-07-29 12:00","2021","07","29","12:00","27.2","","21.6","","71","","0.0","","31","","22","","16.1","","98.55","","36","","","","NA"
"-82.08","42.31","CHATHAM KENT","6131414","2021-07-29 13:00","2021","07","29","13:00","26.6","","22.4","","77","","0.0","","2","","8","","16.1","","98.55","","36","","","","NA"
"-82.08","42.31","CHATHAM KENT","6131414","2021-07-29 14:00","2021","07","29","14:00","26.9","","23.3","","80","","2.0","","32","","13","","16.1","","98.55","","37","","","","NA"
"-82.08","42.31","CHATHAM KENT","6131414","2021-07-29 15:00","2021","07","29","15:00","28.2","","22.5","","71","","0.0","","35","","13","","16.1","","98.56","","38","","","","NA"
"-82.08","42.31","CHATHAM KENT","6131414","2021-07-29 16:00","2021","07","29","16:00","27.2","","21.6","","71","","0.0","","2","","15","","16.1","","98.57","","36","","","","NA"
"-82.08","42.31","CHATHAM KENT","6131414","2021-07-29 17:00","2021","07","29","17:00","27.6","","21.8","","70","","0.0","","1","","15","","16.1","","98.59","","37","","","","NA"
"-82.08","42.31","CHATHAM KENT","6131414","2021-07-29 18:00","2021","07","29","18:00","26.5","","21.5","","74","","0.0","","3","","11","","16.1","","98.64","","35","","","","NA"
"-82.08","42.31","CHATHAM KENT","6131414","2021-07-29 19:00","2021","07","29","19:00","24.1","","20.2","","78","","0.0","","2","","11","","16.1","","98.72","","32","","","","NA"
"-82.08","42.31","CHATHAM KENT","6131414","2021-07-29 20:00","2021","07","29","20:00","22.1","","18.6","","80","","0.0","","36","","15","","16.1","","98.82","","29","","","","NA"
"-82.08","42.31","CHATHAM KENT","6131414","2021-07-29 21:00","2021","07","29","21:00","21.1","","17.4","","79","","0.0","","1","","17","","16.1","","98.85","","27","","","","NA"
"-82.08","42.31","CHATHAM KENT","6131414","2021-07-29 22:00","2021","07","29","22:00","20.2","","17.5","","84","","0.0","","1","","15","","16.1","","98.89","","26","","","","NA"
"-82.08","42.31","CHATHAM KENT","6131414","2021-07-29 23:00","2021","07","29","23:00","19.0","","17.7","","92","","0.0","","36","","13","","16.1","","98.94","","","","","","NA"
"-82.08","42.31","CHATHAM KENT","6131414","2021-07-30 00:00","2021","07","30","00:00","18.8","","17.7","","93","","0.0","","35","","13","","16.1","","98.96","","","","","","NA"
"-82.08","42.31","CHATHAM KENT","6131414","2021-07-30 01:00","2021","07","30","01:00","18.6","","17.5","","93","","0.0","","35","","13","","16.1","","98.98","","","","","","NA"
"-82.08","42.31","CHATHAM KENT","6131414","2021-07-30 02:00","2021","07","30","02:00","18.5","","17.1","","92","","0.0","","34","","17","","16.1","","99.03","","","","","","NA"
"-82.08","42.31","CHATHAM KENT","6131414","2021-07-30 03:00","2021","07","30","03:00","17.7","","16.6","","93","","0.0","","34","","15","","16.1","","99.09","","","","","","NA"
"-82.08","42.31","CHATHAM KENT","6131414","2021-07-30 04:00","2021","07","30","04:00","17.0","","15.5","","91","","0.0","","34","","17","","16.1","","99.11","","","","","","NA"
"-82.08","42.31","CHATHAM KENT","6131414","2021-07-30 05:00","2021","07","30","05:00","16.2","","15.1","","93","","0.0","","34","","15","","16.1","","99.14","","","","","","NA"
"-82.08","42.31","CHATHAM KENT","6131414","2021-07-30 06:00","2021","07","30","06:00","16.2","","15.1","","93","","0.0","","35","","15","","16.1","","99.18","","","","","","NA"
"-82.08","42.31","CHATHAM KENT","6131414","2021-07-30 07:00","2021","07","30","07:00","16.9","","15.6","","92","","0.0","","1","","13","","16.1","","99.26","","","","","","NA"
"-82.08","42.31","CHATHAM KENT","6131414","2021-07-30 08:00","2021","07","30","08:00","18.4","","15.6","","83","","0.0","","3","","15","","16.1","","99.33","","","","","","NA"
"-82.08","42.31","CHATHAM KENT","6131414","2021-07-30 09:00","2021","07","30","09:00","19.6","","14.6","","73","","0.0","","36","","17","","16.1","","99.37","","","","","","NA"
"-82.08","42.31","CHATHAM KENT","6131414","2021-07-30 10:00","2021","07","30","10:00","20.5","","14.2","","67","","0.0","","36","","15","","16.1","","99.44","","","","","","NA"
"-82.08","42.31","CHATHAM KENT","6131414","2021-07-30 11:00","2021","07","30","11:00","21.3","","15.1","","68","","0.0","","36","","21","","16.1","","99.49","","25","","","","NA"
"-82.08","42.31","CHATHAM KENT","6131414","2021-07-30 12:00","2021","07","30","12:00","21.2","","13.7","","62","","0.0","","34","","21","","16.1","","99.48","","","","","","NA"
"-82.08","42.31","CHATHAM KENT","6131414","2021-07-30 13:00","2021","07","30","13:00","21.1","","13.2","","60","","0.0","","3","","22","","16.1","","99.49","","","","","","NA"
"-82.08","42.31","CHATHAM KENT","6131414","2021-07-30 14:00","2021","07","30","14:00","21.9","","13.1","","57","","0.0","","1","","24","","16.1","","99.46","","25","","","","NA"
"-82.08","42.31","CHATHAM KENT","6131414","2021-07-30 15:00","2021","07","30","15:00","21.8","","13.7","","59","","0.0","","35","","17","","16.1","","99.46","","25","","","","NA"
"-82.08","42.31","CHATHAM KENT","6131414","2021-07-30 16:00","2021","07","30","16:00","20.9","","12.7","","59","","0.0","","2","","26","","16.1","","99.46","","","","","","NA"
"-82.08","42.31","CHATHAM KENT","6131414","2021-07-30 17:00","2021","07","30","17:00","20.1","","12.2","","60","","0.0","","1","","17","","16.1","","99.46","","","","","","NA"
"-82.08","42.31","CHATHAM KENT","6131414","2021-07-30 18:00","2021","07","30","18:00","18.6","","10.7","","60","","0.0","","2","","18","","16.1","","99.49","","","","","","NA"
"-82.08","42.31","CHATHAM KENT","6131414","2021-07-30 19:00","2021","07","30","19:00","17.0","","10.5","","65","","0.0","","3","","11","","16.1","","99.53","","","","","","NA"
"-82.08","42.31","CHATHAM KENT","6131414","2021-07-30 20:00","2021","07","30","20:00","15.2","","10.6","","74","","0.0","","4","","8","","16.1","","99.53","","","","","","NA"
"-82.08","42.31","CHATHAM KENT","6131414","2021-07-30 21:00","2021","07","30","21:00","13.9","","11.7","","86","","0.0","","","","0","","16.1","","99.55","","","","","","NA"
"-82.08","42.31","CHATHAM KENT","6131414","2021-07-30 22:00","2021","07","30","22:00","12.3","","10.3","","87","","0.0","","4","","8","","16.1","","99.53","","","","","","NA"
"-82.08","42.31","CHATHAM KENT","6131414","2021-07-30 23:00","2021","07","30","23:00","11.3","","10.1","","92","","0.0","","35","","4","","16.1","","99.54","","","","","","NA"
"-82.08","42.31","CHATHAM KENT","6131414","2021-07-31 00:00","2021","07","31","00:00","10.7","","10.1","","96","","0.0","","34","","4","","16.1","","99.51","","","","","","NA"
"-82.08","42.31","CHATHAM KENT","6131414","2021-07-31 01:00","2021","07","31","01:00","9.8","","9.4","","97","","0.0","","","","0","","16.1","","99.47","","","","","","NA"
"-82.08","42.31","CHATHAM KENT","6131414","2021-07-31 02:00","2021","07","31","02:00","9.9","","9.5","","97","","0.0","","","M","5","","16.1","","99.47","","","","","","NA"
"-82.08","42.31","CHATHAM KENT","6131414","2021-07-31 03:00","2021","07","31","03:00","9.8","","9.2","","96","","0.0","","3","","4","","16.1","","99.45","","","","","","NA"
"-82.08","42.31","CHATHAM KENT","6131414","2021-07-31 04:00","2021","07","31","04:00","9.3","","8.6","","95","","0.0","","","M","4","","16.1","","99.48","","","","","","NA"
"-82.08","42.31","CHATHAM KENT","6131414","2021-07-31 05:00","2021","07","31","05:00","9.0","","8.7","","98","","0.0","","24","","4","","16.1","","99.43","","","","","","NA"
"-82.08","42.31","CHATHAM KENT","6131414","2021-07-31 06:00","2021","07","31","06:00","9.7","","9.3","","97","","0.0","","","","0","","16.1","","99.43","","","","","","NA"
"-82.08","42.31","CHATHAM KENT","6131414","2021-07-31 07:00","2021","07","31","07:00","13.5","","12.1","","91","","0.0","","4","","4","","16.1","","99.42","","","","","","NA"
"-82.08","42.31","CHATHAM KENT","6131414","2021-07-31 08:00","2021","07","31","08:00","17.3","","11.4","","68","","0.0","","12","","5","","16.1","","99.40","","","","","","NA"
"-82.08","42.31","CHATHAM KENT","6131414","2021-07-31 09:00","2021","07","31","09:00","19.0","","12.4","","65","","0.0","","18","","9","","16.1","","99.36","","","","","","NA"
"-82.08","42.31","CHATHAM KENT","6131414","2021-07-31 10:00","2021","07","31","10:00","20.1","","14.6","","70","","0.0","","17","","11","","16.1","","99.30","","","","","","NA"
"-82.08","42.31","CHATHAM KENT","6131414","2021-07-31 11:00","2021","07","31","11:00","21.0","","14.6","","67","","0.0","","19","","17","","16.1","","99.30","","25","","","","NA"
"-82.08","42.31","CHATHAM KENT","6131414","2021-07-31 12:00","2021","07","31","12:00","21.4","","15.1","","67","","0.0","","21","","21","","16.1","","99.29","","25","","","","NA"
"-82.08","42.31","CHATHAM KENT","6131414","2021-07-31 13:00","2021","07","31","13:00","22.6","","16.2","","67","","0.0","","22","","26","","16.1","","99.23","","27","","","","NA"
"-82.08","42.31","CHATHAM KENT","6131414","2021-07-31 14:00","2021","07","31","14:00","22.1","","15.6","","66","","0.0","","21","","17","","16.1","","99.17","","26","","","","NA"
"-82.08","42.31","CHATHAM KENT","6131414","2021-07-31 15:00","2021","07","31","15:00","22.9","","15.8","","64","","0.0","","21","","26","","16.1","","99.09","","27","","","","NA"
"-82.08","42.31","CHATHAM KENT","6131414","2021-07-31 16:00","2021","07","31","16:00","23.1","","15.8","","63","","0.0","","21","","22","","16.1","","99.00","","28","","","","NA"
"-82.08","42.31","CHATHAM KENT","6131414","2021-07-31 17:00","2021","07","31","17:00","23.2","","15.5","","61","","0.0","","23","","21","","16.1","","98.97","","27","","","","NA"
"-82.08","42.31","CHATHAM KENT","6131414","2021-07-31 18:00","2021","07","31","18:00","22.5","","16.4","","68","","0.0","","22","","15","","16.1","","98.93","","27","","","","NA"
"-82.08","42.31","CHATHAM KENT","6131414","2021-07-31 19:00","2021","07","31","19:00","21.0","","17.1","","78","","0.0","","20","","13","","16.1","","98.92","","26","","","","NA"
"-82.08","42.31","CHATHAM KENT","6131414","2021-07-31 20:00","2021","07","31","20:00","18.9","","16.9","","88","","0.0","","21","","8","","16.1","","98.88","","","","","","NA"
"-82.08","42.31","CHATHAM KENT","6131414","2021-07-31 21:00","2021","07","31","21:00","17.9","","15.9","","88","","0.0","","22","","11","","16.1","","98.89","","","","","","NA"
"-82.08","42.31","CHATHAM KENT","6131414","2021-07-31 22:00","2021","07","31","22:00","17.6","","15.4","","87","","0.0","","23","","11","","16.1","","98.85","","","","","","NA"
"-82.08","42.31","CHATHAM KENT","6131414","2021-07-31 23:00","2021","07","31","23:00","17.4","","14.9","","85","","0.0","","29","","8","","16.1","","98.84","","","","","","NA"
